placekey,safegraph_place_id,location_name,street_address,city,naics_code,latitude,longitude,postal_code
223-222@63f-yc3-mzf,sg:72f93d42072742a8b4bedeced2bf7a06,Carilion Clinic Plastic and Reconstructive Surgery Blacksburg,817 Davis St Ste 2,Blacksburg,621111,37.186659999999996,-80.414146,24060
224-222@63r-syb-zvf,sg:274199d3d3504474aca6e0eb08d99504,Integrated Sports Medicine & Physical Therapy,19500 Sandridge Way Ste 230,Lansdowne,621340,39.076214,-77.480354,20176
222-222@63f-yc2-d7q,sg:97b7ddc3493841f6890db56bfdb890e7,The Farmhouse Restaurant,285 Ridinger St,Christiansburg,722511,37.153422,-80.421832,24073
zzz-222@63f-yb6-c3q,sg:b4b9c31aa15c429d9aa6b54171ba4f10,Haven Heights Park,Milton Lane & Haven Dr,Radford,712190,37.130069,-80.544028,24141
zzy-222@63f-tx7-td9,sg:9215f3e63a184e99b976d5fe2c2ab0a6,Randall G Samples M D,5562 Cougar Trail Rd,Dublin,621111,37.09709,-80.718259,24084
22c-223@63f-yry-6x5,sg:dc7b38daa91645fb93289aa0e4d26017,7-Eleven,1350 N Main St,Blacksburg,445120,37.245967,-80.414612,24060
222-223@63f-tx8-59f,sg:64cd15e52e5d486e92aadabaf462de63,Pulaski County Sr High,5414 Cougar Trail Rd,Dublin,611110,37.094489,-80.71863,24084
222-222@63f-yc3-m8v,sg:87bd071c14994d23a4995f8ec46bab71,LewisGale Physicians,825 Davis St,Merrimac,621111,37.187657,-80.414849,24060
227-222@63f-rw3-v9f,sg:b8388a90e0aa4be592ccc2185e8b28b1,Lets Learn About CBD,275 Depot St NE,Christiansburg,621111,37.136095000000005,-80.409375,24073
22b-223@63r-syc-nyv,sg:bd85082e45a24da7aa94018abeb79b04,Urology Group,19415 Deerfield Ave Ste 112,Lansdowne,621111,39.079412,-77.47751600000001,20176
228-222@63r-syc-qj9,sg:69e0deb79de44100887a586bc79f31ba,Loudoun Orthodontics,19465 Deerfield Ave Ste 304,Lansdowne,621210,39.078223,-77.478473,20176
zzy-225@63f-s3s-swk,sg:892069b82f814260bd9bc8680a779391,Jason V Naldo DPM,2900 Lamb Cir Ste L 760,Christiansburg,621111,37.088546,-80.505525,24073
zzw-223@63r-syc-r8v,sg:e6a62659372945898c8881059de321dc,Leesburg Internal Medicine and Primary Care LLC,19455 Deerfield Ave,Lansdowne,621111,39.077653000000005,-77.477298,20176
222-228@63f-s3r-5mk,sg:b18e66717de64e9e98c5c6004db26044,Professional Rehab Associates,2875 Barn Rd,Christiansburg,621340,37.091805,-80.505749,24073
zzw-223@63r-syc-qj9,sg:ce8540210d114d39a63bfce5a4d02494,K Todd Burnett MSPT,19465 Deerfield Ave,Lansdowne,621340,39.078215,-77.478492,20176
226-222@63r-ss2-8y9,sg:fc3f51f284de49bbb2321ca68a839101,Lin's James Cafe,671 Potomac Station Dr NE,Leesburg,722511,39.099517999999996,-77.526134,20176
zzw-22j@63f-s3r-2tv,sg:420ac9fac42e45ac8f742aac3f78d7ef,Melissa W Weiss NP,2900 Lamb Cir Ste 300,Christiansburg,621111,37.088861,-80.505151,24073
222-222@63f-rw3-zxq,sg:4ec68a27ca124f5b89bac4204e9fbdd0,Sayers Marta C MD Facc,1201 Elm St,Christiansburg,621111,37.144659999999995,-80.41469000000001,24073
22f-222@63r-syc-nyv,sg:7549db34f9464155a15a05c6f8a532ed,Lansdowne Orthodontics,19415 Deerfield Ave Ste 306,Lansdowne,621210,39.079418,-77.47751,20176
zzy-223@63r-ss2-d9z,sg:8b304023797941da8ab4a392d512cb47,Ronald Buro,230 Fort Evans Rd NE,Leesburg,621210,39.110583,-77.536486,20176
zzy-225@63f-s3r-2tv,sg:2106e9e5abad4c85a608ff91f784e33f,Patricia Beauzile M D,2900 Lamb Cir Ste 202,Christiansburg,621111,37.089265999999995,-80.505619,24073
222-223@63f-ybx-26k,sg:2c761333c4be43a4bb28fac2f33ba6b9,Joco Mart,1935 Cambria St NE,Christiansburg,445110,37.151617,-80.41067,24073
222-22d@63r-syc-nyv,sg:7d024da5556b464c82fc8c7be1ba4625,Mari Parker FNP BC,19415 Deerfield Ave,Lansdowne,621111,39.079411,-77.477526,20176
225-222@63f-yj5-975,sg:07fd1fdfd8d242a6b421a0e44e56b078,Ciro's Pizza,248 E Main St,Dublin,722511,37.103835,-80.68535899999999,24084
225-223@63f-ybt-zmk,sg:fcca9588a7d54e099886e21fab91ef9b,Sleep Disorders Network of Virginia,2955 Market St Ste B1,Christiansburg,621111,37.16985,-80.419478,24073
222-222@63f-yc3-rrk,sg:9fe9a6722fc948e09bf5a3c1499ca958,Jerome H Goldschmidt Jr M D,2600 Research Center Dr Ste A,Blacksburg,621111,37.195453,-80.404412,24060
22p-223@63r-sy9-nh5,sg:191213d3d8874a83bba8f7ea3955cc15,T'KiLa Mexican Kitchen & Bar,19345 Promenade Dr,Lansdowne,722511,39.081599,-77.495297,20176
225-222@63f-tx5-xh5,sg:36b05479d32b4e92b30dfe6aa2053f0e,Alliance Xpress Urgent Care,5275 Alexander Rd,Dublin,621493,37.081801,-80.69364,24084
222-223@63f-s4m-j35,sg:bfc1cb33ccaa4c73aadf68f924e86274,Sportsman,2947 Little River Rd,Radford,722511,37.088453,-80.578383,24141
229-222@63f-ybq-nqz,sg:e20fdc69557242a284906a6defb737ec,Tina's Gourmet,428 N Main St,Blacksburg,445110,37.231986,-80.41605,24060
223-222@63f-w7p-xwk,sg:ffb825e8099c4e19ab9718e201346166,Sunset Deli Mart,10446 Roanoke Rd,Elliston,445120,37.233517,-80.19564799999999,24087
zzw-228@63r-syc-2hq,sg:8cd6b6b29a684fdc927f5464e851de3d,Breast Care Consultants,44055 Riverside Pkwy,Lansdowne,621111,39.074019,-77.477863,20176
zzz-222@63f-yj4-wx5,sg:55d67dc0eda64611bd9299db7ce7bbae,Lions Club Park,Dunlap Rd,Dublin,712190,37.102241,-80.67619300000001,24084
zzz-222@63r-stm-jgk,sg:4ab17d89de2340c2bf29fab9ff0f078e,Potomac Crossing Park,508 Shanks Evans Rd NE Leesburg Va 20176,Leesburg,712190,39.125173,-77.528432,20176
226-223@63f-wgj-cyv,sg:01e62a494b88412a8d22c4201a126bf2,Lucie Monroe's,1301 S Main St,Blacksburg,722511,37.217284,-80.40005,24060
222-222@63r-sy9-p5f,sg:33a55f33d72142a4b045d10ccd992a3b,Seldens Landing Elem,43345 Coton Commons Dr,Lansdowne,611110,39.083584,-77.501191,20176
zzw-222@63f-wgh-9cq,sg:0d57be80928943a2a48eaa0c89394d28,ZoÃ«s Kitchen,1560 S Main St,Blacksburg,722511,37.213378999999996,-80.400649,24060
223-222@63f-yb4-zs5,sg:661e595dcac4404db117a7d8e3c31d19,Roanoke Foot & Ankle At Radford,116 3rd Ave,Radford,621111,37.140107,-80.55830999999999,24141
zzy-222@63r-syb-zzz,sg:36d8a5c97f3c43d483a98067dca74e75,Claudio Iwamoto DDS MS,19490 Sandridge Way Ste 270,Lansdowne,621210,39.076862,-77.482037,20176
225-222@63f-rw3-54v,sg:dac8bfe8245b4fdb9918d475e0b46ce3,Myers Stephen L Dr,103 College St Ste A,Christiansburg,621210,37.129222999999996,-80.41188299999999,24073
222-222@63f-ybf-m6k,sg:f946d03be95144ffb067e9ed1a9dcb6f,New River Dermatology,2617 Sheffield Dr,Blacksburg,621111,37.219012,-80.451688,24060
zzz-222@63f-ybq-bkz,sg:90ab25ba88414679af367583c1738bea,Spring Lot,401 Clay St SE,Blacksburg,712190,37.229539,-80.40852199999999,24060
zzw-222@63f-s3r-35z,sg:e1f9d69b192343c8a1b04b0a9c535d88,Carilion Clinic Orthopaedic Surgery New River Valley,2900 Lamb Cir Ste L 760,Christiansburg,621111,37.08965,-80.50500600000001,24073
zzw-229@63r-ss3-q4v,sg:66ee7caf99f24a658d0a00b9a2317ed6,Leesburg Foot & Ankle Center,211 Gibson St NW Ste 101,Leesburg,621111,39.119014,-77.567748,20176
222-227@63f-s3r-5mk,sg:57c655da8d784c30b5bf3b22c145c2ee,Obstetrics & Gynecology of Radford,2875 Barn Rd,Christiansburg,621111,37.091794,-80.505791,24073
222-222@63f-rt7-kxq,sg:21ce701ed60e4815afa7c93bc2940e45,Auburn High,1650 Auburn School Dr,Riner,611110,37.059646,-80.443598,24149
227-222@63r-ss3-snq,sg:28693622d3ce4f71a529f6d21278f991,Inova,211 Gibson St NW Ste 220,Leesburg,621111,39.119942,-77.56884699999999,20176
223-222@63f-ybq-nqz,sg:472af76c97ab483786ec2e1c5bef988b,Hokie House,322 N Main St,Blacksburg,722511,37.231367999999996,-80.415438,24060
22b-222@63f-yc3-92k,sg:23f97c8f83834306ae0be4eea8d074cc,Young Robert J Gyn,3698 S Main St,Blacksburg,621111,37.187203000000004,-80.408392,24060
zzw-234@63f-s3r-2tv,sg:a4e0b3a8ca734f748acc24b7c10bfe8b,Jacob R Sakiey PA,2900 Lamb Cir Ste L 760,Christiansburg,621111,37.089221,-80.505134,24073
222-222@63f-yc2-bx5,sg:9bd8252159174183978fe2c73afd2759,Texas Roadhouse,100 Bradley Dr,Christiansburg,722511,37.162563,-80.426346,24073
224-223@63r-ss2-bx5,sg:a2633b1ff9b849c28f7da6127226252c,Leesburg Bright Dental,552 Fort Evans Rd Ste 100,Leesburg,621210,39.104959,-77.526517,20176
22b-222@63f-yc3-m8v,sg:e8fea519db16412ca88a3fc67e450cb9,Encore Ob Gyn,825 Davis St Ste C,Merrimac,621111,37.18756,-80.41481999999999,24060
223-222@63r-ss2-8y9,sg:e63fbd5cb12046da8c2d3a75ec493550,Moe's Southwest Grill,667 Potomac Station Dr NE,Leesburg,722511,39.099369,-77.526089,20176
22d-224@63f-ybp-kxq,sg:fa896cc549c84f1aa499b185595c9f5c,Centro Taco Bar,201 N Main St,Blacksburg,722511,37.230046,-80.414878,24060
zzw-222@63f-tx5-yn5,sg:1f14f29a183f43aa9f9aa8cd7523d840,FATZ,4586 Alexander Farm Rd,Dublin,722511,37.080895,-80.692412,24084
22f-222@63r-syc-2hq,sg:11ea40f4d918496a9b2caabe671d9f07,Loudoun Gastroenterology,44055 Riverside Pkwy Ste 220,Lansdowne,621111,39.074001,-77.477829,20176
222-226@63f-rw4-4qf,sg:9ecddd986f7848d79a508a82b6ff0883,Carilion Clinic Gastroenterology Akers Farm NRV,110 Akers Farm Rd,Christiansburg,621111,37.14703,-80.413814,24073
zzw-22d@63f-s3r-2tv,sg:28ed1cf5522c41c7a1d9f006e10ec9cc,Carilion Clinic Internal Medicine Radford,2900 Lamb Cir Ste 250,Christiansburg,621111,37.088838,-80.5051,24073
226-222@63r-syc-2hq,sg:344406d191204b9990339956aecec544,Inova,44055 Riverside Pkwy Ste 118,Lansdowne,621111,39.073999,-77.47783299999999,20176
222-222@63f-yc2-7qz,sg:ae445ee1ba014cbfb028c793ec36346b,Spencer Dental,135 Conston Ave,Christiansburg,621210,37.1573,-80.421897,24073
222-222@63f-y9z-pn5,sg:40c36df2bdfe473bb712351280e328f0,Highlander Pizza,700 E Main St,Radford,722511,37.138042999999996,-80.545624,24141
229-222@63f-ybq-p9z,sg:db50fd510a71408f886a46f3d6119269,India Garden Restaurant,210 Prices Fork Rd Ste D,Blacksburg,722511,37.234853,-80.421842,24060
222-225@63r-syb-zzz,sg:dd7ecf713a7646539641528bee446f2b,Kimberly Johnson AUD,19490 Sandridge Way,Lansdowne,621111,39.076846,-77.481833,20176
222-223@63r-srx-sh5,sg:a84f25eaa63340e4b01ece672df85e59,Leesburg Elem,323 Plaza St NE,Leesburg,611110,39.120574,-77.549347,20176
223-222@63f-rvy-47q,sg:5b13e76d2e074c32aa49a3a38aba6131,Due South BBQ,1465 Roanoke St,Christiansburg,722511,37.132179,-80.380363,24073
zzw-222@63r-sy9-8n5,sg:d85829d48c4141ada8ab36598397da51,Vandana Sood DMD Llc,19420 Golf Vista Plz Ste 360,Lansdowne,621210,39.077903000000006,-77.483378,20176
224-222@63f-yc2-7qz,sg:ff29878cc2b739c8872193d3190724e9,Affordable Dentures,175 Conston Ave,Christiansburg,621210,37.15724,-80.422115,24073
222-222@63r-syc-pgk,sg:356401ff04a84629b584efa7304dbaae,Melissa Hebert FNP BC,44084 Riverside Pkwy,Lansdowne,621111,39.076396,-77.47372,20176
222-222@63r-syb-zzz,sg:43d9cbc05a3b4e20a910083ed3ffad2b,Loudoun Medical Care and Wellness,19490 Sandridge Way,Lansdowne,621111,39.076832,-77.481832,20176
zzw-225@63r-ss3-q4v,sg:d61a085387ac43fcafeb9be5716591b0,Barry P London DPM,211 Gibson St NW,Leesburg,621111,39.119021000000004,-77.567766,20176
227-222@63r-syc-psq,sg:3c8ede17cb3948ffaecbe3656dd9bafa,Loudoun Ophthalmology Associates,44125 Woodridge Pkwy Ste 180,Lansdowne,621111,39.0774,-77.472001,20176
zzy-222@63f-rt7-pjv,sg:09e5b9b38a6c48ea9848e75599334ff2,Auburn Middle,4069 Riner Rd,Riner,611110,37.062455,-80.442337,24149
224-222@63f-ybv-ju5,sg:b0dd560ea15c4de9a975939ab330ea32,Kohl's,782 New River Rd Ste 300,Christiansburg,452210,37.166864000000004,-80.428372,24073
226-222@63f-s4m-52k,sg:2e978680d9954ce2a14429dac06a5957,Deli Mart,2307 W Main St,Radford,445120,37.111596,-80.590125,24141
zzz-222@63f-ybp-mtv,sg:34995501bc40494d8112f28638e99406,MarciaS Park,200 Clay St SW,Blacksburg,712190,37.226799,-80.412879,24060
22r-224@63r-ss3-snq,sg:784682a9f1bd4b399727647a5d286cc4,Catoctin Foot and Ankle Center,224D Cornwall St NW,Leesburg,621111,39.119414,-77.569036,20176
zzw-223@63r-syc-2hq,sg:80637b353d464ca1b473d03244dd880d,Radiology Imaging,44055 Riverside Pkwy,Lansdowne,621111,39.073983,-77.477747,20176
223-222@63f-ybv-nwk,sg:20ccd742223640ac89ba13657ba8705d,Ross Stores,125 Shoppers Way,Christiansburg,452210,37.167603,-80.424676,24073
22r-229@63r-ss3-snq,sg:38a2d1e0e9b743b69933fe7866ae4f7f,Anne Lowery PTA,224D Cornwall St NW,Leesburg,621340,39.119384000000004,-77.569011,20176
224-223@63r-srr-nwk,sg:cb372ba1542648119a8d3573ea19868c,Emergency Dentist Leesburg,19 Catoctin Cir NE,Leesburg,621210,39.111246,-77.554416,20176
22d-222@63f-yc4-66k,sg:3622cbb8b7ff4780b0c0e59d4655305b,EHE Clinic & Wellness,1800 Kraft Dr Ste 208,Blacksburg,621111,37.202764,-80.410628,24060
226-222@63r-syb-mrk,sg:e4cf311fca554f289ab814d75617232e,Reston Pediatric Associates,44160 Scholar Plz Ste 450,Lansdowne,621111,39.069340999999994,-77.47353000000001,20176
22c-222@63f-ybq-grk,sg:37da431082114ab58ddaa4d3b063a961,Raymond Munz DDS,611 S Main St Ste A,Blacksburg,621210,37.225155,-80.40901099999999,24060
222-222@63r-syb-pjv,sg:79bd000144ff4fa5b3e1f99f047b7a74,Kathleen Pelkofski ANP BC,44055 Riverside Pkwy,Lansdowne,621111,39.074323,-77.476906,20176
22c-222@63f-ybp-jgk,sg:005837d9f50f45079db676fec7d1039c,Ankrum Michael J Dr,211 Clay St SW,Blacksburg,621210,37.22579,-80.413604,24060
zzy-222@63r-syc-2hq,sg:bd537848cce7430e94c602c527e83fb3,Inova,44045 Riverside Pkwy Emergency Room,Lansdowne,621111,39.074042,-77.477513,20176
22b-222@63r-srz-rc5,sg:174b7f7c03a64d4da887a319f88221fe,Leesburg Premier Dental,161 Fort Evans Rd NE Ste 300,Leesburg,621210,39.108745,-77.541503,20176
223-222@63f-yc2-cbk,sg:5ab177aba30641bab383ddb04bdf4f36,Asian Cafe,200 Marshall Dr,Christiansburg,722511,37.162251,-80.425119,24073
zzy-222@63f-ybp-ysq,sg:3795b30e42164269bd7026c2df7fa621,Turner Place,Lavery Hall,Blacksburg,722511,37.231003,-80.422739,24060
22d-222@63r-sry-s89,sg:86911794840946279a34af93dec5baff,Taipei Cafe,946 Edwards Ferry Rd NE,Leesburg,722511,39.115758,-77.540889,20176
zzw-223@63r-sry-zfz,sg:b3b102fed0cf44879d4317f4b34669f5,Frances Hazel Reid Elem,800 N King St,Leesburg,611110,39.131099,-77.549841,20176
225-224@63f-rw4-4jv,sg:68dbe64e9e084fda9833e93e6a25e090,Meghan A Cooper DO,120 Akers Farm Rd,Christiansburg,621111,37.146997999999996,-80.41345600000001,24073
zzw-22r@63f-s3r-2tv,sg:3f516abcf6f34c60b5f26eac4163bb9f,Heather L Fuentes D O,2900 Lamb Cir Ste 202,Christiansburg,621111,37.089283,-80.505637,24073
222-222@63f-s3q-v4v,sg:80f950cdf0b74fd6bf86517fae3fbfe5,Little River Grill,2395 Tyler Rd,Christiansburg,722511,37.099498,-80.512421,24073
226-222@63r-srr-p35,sg:bf2c8c2cad8c400196ca17f7625c9054,Talib Ali DDS Avatar Dental Care,545 E Market St Ste G,Leesburg,621210,39.107797,-77.55187,20176
zzw-22f@63r-syc-qj9,sg:280010e2c5014b889110adb07adee225,Lindsay Smith FNP BC,19465 Deerfield Ave,Lansdowne,621111,39.078213,-77.47850799999999,20176
zzy-223@63f-s3r-2tv,sg:311a0067cdb743ceb2c17db29c889737,Kenneth H Rogotzke DO,2900 Lamb Cir Ste 300,Christiansburg,621111,37.089282,-80.50564399999999,24073
zzw-223@63f-ybf-wtv,sg:58929206dc0e4c0d9b1921e8709ff741,PIVOT Physical Therapy,872 Prices Fork Rd,Blacksburg,621340,37.231913,-80.431232,24060
22b-223@63f-wgh-gkz,sg:d31d806194bc47cc9a0489aa402bff26,CORA Physical Therapy Blacksburg,1997 S Main St Ste 601,Blacksburg,621340,37.206293,-80.398051,24060
222-224@63f-ybn-87q,sg:84cbb71152c1497b9be56b069735fc30,Kroger,903 University City Blvd,Blacksburg,445110,37.235548,-80.434986,24060
223-223@63f-wgj-8y9,sg:dab117983cee4eedaf9ad95b58077fec,Ninja Cafe,1200 S Main St,Blacksburg,722511,37.219044,-80.40320799999999,24060
222-222@63f-s4t-t7q,sg:261ec8f9326f450dbeee932cbc0b2f9f,Hoskins R Graham DMD,106 Inglewood Dr,Radford,621210,37.108385,-80.572978,24141
224-222@63f-yc3-m8v,sg:172b76bef22f4229ab2a20d9b66c199d,Neurological Care Center,825 Davis St Ste D,Merrimac,621111,37.187521999999994,-80.41480200000001,24060
22c-222@63f-yc3-qxq,sg:5c981354e4764b4cb3918b756c205457,New River Vly Orthopaedics & Sports Medicine,120 Professional Park Dr SE Ste 7,Blacksburg,621111,37.196649,-80.40125,24060
228-222@63f-yry-6tv,sg:d500b94e286d43e7bb9ec5d169753934,Roma Pizza,1407 N Main St,Blacksburg,722511,37.247534,-80.415295,24060
zzw-226@63r-srr-nwk,sg:2b12c241bd94430ab78509382bf93841,Inova,51 Catoctin Cir NE,Leesburg,621111,39.112024,-77.553917,20176
22z-222@63r-srr-p7q,sg:ed6de5fc7805488cba1699ead857b50b,Best Thai Kitchen,525 E Market St Ste G,Leesburg,722511,39.108162,-77.552775,20176
22c-222@63r-srz-rc5,sg:35def18f9c24463285c13478f4186fa3,Children and Adolescent Pediatric,161 Fort Evans Rd NE Ste 330,Leesburg,621111,39.108419,-77.541389,20176
zzw-22p@63f-s3r-2tv,sg:7c62a1bcddb14dd09e254b334f35f2c7,Carilion Clinic Otolaryngology New River Valley,2900 Lamb Cir Ste 300,Christiansburg,621111,37.088857,-80.505239,24073
zzw-222@63f-yc2-zxq,sg:e8fb89a8193d4434a40886d6b3d45cae,Women's Health Center of Virginia,3698 S Main St,Blacksburg,621111,37.187816,-80.411085,24060
22c-222@63f-ybq-mp9,sg:020017ec0cb046bb9a234e0956377e38,Italiano's,610 N Main St,Blacksburg,722511,37.234136,-80.418704,24060
226-222@63f-yc3-m8v,sg:e9e8a9570f1a49aeb680770a12d6cd46,Lewis Gale Physicians,825 Davis St Ste A,Merrimac,621111,37.187678999999996,-80.414819,24060
222-222@63r-stc-cdv,sg:1da924913e2743be803c5fa9bb029200,Highway Mobile Home Community,14489 James Monroe Hwy,Leesburg,712190,39.214583000000005,-77.53585,20176
222-222@63f-ybq-4y9,sg:295443113f8c4a0189f49b84fd5f0c42,Hahn Horticulture Garden,200 Garden Ln,Blacksburg,712130,37.219196000000004,-80.424195,24061
zzy-222@63r-sy9-zfz,sg:deb982cc7714477ca4a042a4b4c87210,Coton and Rye,44050 Woodridge Pkwy,Lansdowne,722511,39.083535999999995,-77.476074,20176
222-225@63r-syc-qzz,sg:e2239effd88d426a91cf56e3abec0cf7,Inova Loudoun Outpatient Specialty Rehabilitation Center,44035 Riverside Pkwy Ste 500C,Lansdowne,621340,39.075245,-77.478574,20176
22d-224@63r-syc-2hq,sg:589c29f56acf470b9d65fc86b7f1451c,Inova,44045 Riverside Pkwy Ste 108,Lansdowne,621111,39.074045,-77.477515,20176
zzy-225@63f-tx4-xqz,sg:6f8d2cef6fce4472911012a41bf03975,Carilion Clinic Family Medicine Dublin,118 Broad St,Dublin,621111,37.103702,-80.688501,24084
zzw-226@63r-syc-2hq,sg:48341747d01a4feaa5bfa10339ce1d30,Catherine Williams FNP BC,44055 Riverside Pkwy,Lansdowne,621111,39.074003000000005,-77.477861,20176
zzw-222@63f-s4s-t5f,sg:7db51fbd9e3d416ca2d5467a2b8daeb8,Carilion Clinic Sleep Center,701 Randolph St Ste 220,Radford,621111,37.129346000000005,-80.568407,24141
zzw-22n@63r-srz-dy9,sg:3a906d8c9a754fd3a8a564a696dc5729,Halal Express,241 Fort Evans Rd NE,Leesburg,445110,39.106897,-77.538484,20176
223-222@63f-yc3-y5f,sg:f8290e79143a4669858547c2aa9d0b39,St John Neumann Academy,2470 Research Center Dr,Blacksburg,611110,37.188032,-80.402784,24060
223-223@63f-ybn-kxq,sg:54fa55474fb84e5ebde487e46d18bc65,Deli Mart,809 Glade Rd,Blacksburg,445120,37.234623,-80.436876,24060
zzz-222@63f-rvr-rkz,sg:80c78c87632e46c4ba1b353edc533d7b,Kiwanis Park,310 Kiwanis Ln SE,Christiansburg,712190,37.129493,-80.390074,24073
226-222@63r-ss2-d9z,sg:cde1949f4eeb42059473c582ac621c73,PIVOT Physical Therapy,210B Fort Evans Rd NE,Leesburg,621340,39.110695,-77.536755,20176
227-225@63f-ybq-p35,sg:20795ba96d0c4659aca5754e69c5f929,Buffalo Wild Wings,460 Turner St NW,Blacksburg,722511,37.233503000000006,-80.422892,24060
224-222@63r-ss2-3qz,sg:c291147c558d4c1ca9a04b8e092c47ad,Buffalo Wild Wings,524 Fort Evans Rd,Leesburg,722511,39.106947999999996,-77.52913000000001,20176
222-222@63f-tx8-59f,sg:73cda767736e462ca28a84cc14d4b209,Pulaski Governor's Stem Academy,5414 Cougar Trail Rd,Dublin,611110,37.094469000000004,-80.718637,24084
227-222@63r-syc-nyv,sg:a121f77cd85b40a59b33b9e6b2ca93a3,Allergy & Asthma Affiliates,19415 Deerfield Ave Ste 210,Lansdowne,621111,39.07942,-77.47752,20176
zzw-222@63r-ss2-47q,sg:518f8359b73b451ba4c8d738a0c6708c,Sakura Japanese Steak Searood & Sushi,516 Fort Evans Rd,Leesburg,722511,39.10773,-77.52922,20176
229-223@63f-yb4-zs5,sg:c101ba78a64e42eab114447ab44b79a5,The Tie Dyed Pig,103 3rd Ave,Radford,722511,37.140541,-80.557958,24141
zzy-222@63f-s3s-swk,sg:c8cdf0ef724045a49f85c3b3017e0113,Sabrina M Johnson NP,2900 Lamb Cir,Christiansburg,621111,37.088535,-80.50551899999999,24073
zzy-226@63f-s3s-swk,sg:ca3cd7e8301f45c898f577cc99e4cecd,Benjamin Rentfrow DO,2900 Lamb Cir Ste 380,Christiansburg,621111,37.088561999999996,-80.505537,24073
222-222@63f-ybv-85f,sg:44f6fe23fa6a47b2a708c269be2feb72,O'Charley's,150 Laurel St,Christiansburg,722511,37.162307,-80.419816,24073
zzz-222@63r-syn-52k,sg:5218dedbd66a4752973f8f15a3067b32,Red Rock Wilderness Overlook Regional Park,43098 Edwards Ferry Rd Leesburg Va 20176,Leesburg,712190,39.112658,-77.509473,20176
zzz-222@63f-y98-v4v,sg:f9ae1fa01fb14f51a3b7e2bfff4a308d,Plum Creek Park,1515 Hornsby Rd,Plum Creek,712190,37.128138,-80.50275699999999,24073
zzw-224@63r-ss3-qs5,sg:462c122edb084f26b2af16745d2afe3d,Cocina on Market,7 W Market St,Leesburg,722511,39.115502,-77.565069,20176
zzw-222@63f-ybf-2c5,sg:64560e53560d45d4a32052e79651d04f,Carilion Clinic Neurosurgery New River Valley,901 Plantation Rd Ste 2,Blacksburg,621111,37.224848,-80.444343,24060
zzw-223@63r-syc-nyv,sg:f64e28de522a4c0aa3a5fca9c508fc4e,Loudoun Dermatology Associates,19415 Deerfield Ave Ste 314,Lansdowne,621111,39.079390999999994,-77.477502,20176
zzw-222@63f-wgz-89z,sg:feec96ec84754c71a5c745768b78b346,Ruby Tuesday,2380 Roanoke St,Christiansburg,722511,37.136934000000004,-80.361695,24073
224-222@63f-yb4-jgk,sg:8ba111fa1b1241e8a2bae89314bd33f5,Fu Lin,7440 Lee Hwy,Fairlawn,722511,37.142718,-80.581641,24141
zzw-228@63f-s3r-2tv,sg:9092fca774174581830621a100e7a7c9,Robert B Stephenson M D,2900 Lamb Cir Ste L 760,Christiansburg,621111,37.088865999999996,-80.505165,24073
zzw-222@63r-srz-q4v,sg:a03b9a05d9814b5a921c246a0dda582e,Del Rio Restaurant,701 E Market St,Leesburg,722511,39.106694,-77.549113,20176
226-222@63f-ybp-kzz,sg:02e01613058144ddbac27a8a5a743529,7-Eleven,100 Draper Rd SW,Blacksburg,445120,37.228660999999995,-80.414307,24060
223-223@63f-rsc-mhq,sg:1d4af9bc738649cbb7587b1c6977eec5,Pilot Mountain Grocery,4553 Pilot Rd,Pilot,445120,37.059061,-80.374228,24138
zzw-222@63r-sy9-8jv,sg:09fd88d83f6d4623878155f48802444f,Gastroenterolgoy & Hepatology Center,19420 Golf Vista Plz,Lansdowne,621111,39.078221,-77.483469,20176
zzw-223@63f-rvs-5mk,sg:1e4fb918bc764cfdb6f213ca83b54af1,Rooker Gary M DO,102 Miller St SE,Christiansburg,621111,37.129535,-80.39846899999999,24073
zzw-222@63f-ybv-4n5,sg:980eb940e0e44c698645b175280869cb,Xtreme Springz Trampoline Park,200 Midway Plaza Dr NW,Christiansburg,712190,37.175445,-80.422797,24073
222-222@63f-ybq-grk,sg:fc76cdf372d14a74a1a96ca3fdbbcf48,Blacksburg Smiles,614 S Main St,Blacksburg,621210,37.224856,-80.40949499999999,24060
222-225@63r-syc-pgk,sg:a72904e442924cfcb312047e59791685,Debra Ceschin FNP BC,44084 Riverside Pkwy,Lansdowne,621111,39.076512,-77.473857,20176
zzy-226@63f-s3r-2tv,sg:4886cbfe84044d5b9793bb49dabca5f8,Carilion Clinic Family Medicine Christiansburg,2900 Lamb Cir Ste 201,Christiansburg,621111,37.089246,-80.505637,24073
zzy-224@63f-rvs-3t9,sg:fc7c0f5cf7034ef387da5130297750c4,Joyce A Cox NP,205 Roanoke St,Christiansburg,621111,37.129886,-80.403524,24073
22g-222@63r-syc-2hq,sg:278a261b7e344f33adba1f6d15bf09f8,Mancini Korkowski,44055 Riverside Pkwy Ste 216,Lansdowne,621111,39.074028000000006,-77.477852,20176
223-222@63f-rvy-gc5,sg:d0c82ab075ac4e5cb5a69e7ca20686c5,Bucko's Pantry Amoco,820 Roanoke St,Christiansburg,445110,37.132290000000005,-80.39208199999999,24073
zzw-222@63f-yc3-99f,sg:f4b5f4872a88413d877e8c09ae57a897,Ankrum Matthew T Ms DDS,3708 S Main St,Blacksburg,621210,37.186426000000004,-80.409359,24060
22c-222@63r-syc-qzz,sg:2a4982fe6a9147d1bb34d3c3a2ca2298,Cardiovascular Group the PC,44035 Riverside Pkwy Ste 150,Lansdowne,621111,39.075148999999996,-77.478443,20176
zzw-223@63r-sry-kcq,sg:e409684c15d748fbbd7d83a1b3c2171c,7-Eleven,700 Fieldstone Dr NE,Leesburg,445120,39.125708,-77.546599,20176
zzw-224@63r-ss3-q4v,sg:9df1c8569ae94b0b9abbf667bc412303,Megan Floro CRNP,211 Gibson St NW,Leesburg,621111,39.118982,-77.567739,20176
237-222@63r-sy9-mzf,sg:1600e49e6b954902a2d1e525b5f8b194,Bhai Sahab Indian Restaurant,19405 Promenade Dr,Lansdowne,722511,39.080842,-77.494585,20176
226-222@63f-ybq-9s5,sg:6cc5e8cb83a84370b6dee7a5b1864226,Glasgow Matthew W Dr,220 Progress St NE,Blacksburg,621210,37.231758,-80.413922,24060
zzw-223@63f-ybj-9zz,sg:0e8bc0f411c84447aa561f0de3d2fc3c,Grumpy Pig Barbeque,3500 Prices Fork Rd,Blacksburg,722511,37.216644,-80.467741,24060
zzw-222@63f-yb4-rx5,sg:f02070f3d0c045959e6461f4157f0886,Applebee's,33 W Main St,Radford,722511,37.137502000000005,-80.570286,24141
zzw-224@63r-srz-sbk,sg:49ebd14d846e418b983f7d4f1bc6df7f,Hancock Orthodontics,17 Fort Evans Rd NE Ste E,Leesburg,621210,39.107296000000005,-77.547112,20176
zzz-222@63f-s4t-6p9,sg:52db532dd3004416bf96a550f43539b1,Mary Draper Ingles Historical Park,E Main St,Radford,712190,37.132678999999996,-80.58119599999999,24141
225-222@63r-sry-2hq,sg:a311d55cbe124ab3bc02ba7471d41126,Giovanni's NY Pizza,520 E Market St,Leesburg,722511,39.110212,-77.55079,20176
222-222@63r-syc-2hq,sg:e6bf8ccf8c1245839a7961121e631ff1,Urology Surgical Consulting,44055 Riverside Pkwy Ste 208,Lansdowne,621111,39.074007,-77.47782099999999,20176
zzw-222@63r-syb-zxq,sg:8144cd3a2ac44a03a4e764b739d27355,Rochelle Maquire FNP BC,19500 Sandridge Way,Lansdowne,621111,39.076093,-77.48037,20176
zzz-222@63r-sy9-j7q,sg:746ff51c052c45ef9b00f3855a95abc2,Kephart Bridge Landing,Kephart Bridge Landing,Lansdowne,712190,39.094282,-77.49860699999999,20176
zzw-225@63f-ybf-2c5,sg:724e75fddf494a9d9f1202ef2eb8530d,Carilion Clinic General Surgery Blacksburg,901 Plantation Rd,Blacksburg,621111,37.224789,-80.444225,24060
222-222@63f-wg6-9zz,sg:4fe53244f3e04ae0aed5e78b7b9b7168,WhiteCreek Market,6691 Roanoke Rd,Shawsville,445120,37.168603000000004,-80.260984,24162
222-222@63r-ss3-skf,sg:ccbcf1b35f004073872520155d6368c8,Inova,235 Old Waterford Rd NW,Leesburg,621111,39.120525,-77.568306,20176
225-222@63f-s4s-t9z,sg:361cded9d00b476fa624fe8d07183c22,Blacksburg P T,206 6th St,Radford,621340,37.130035,-80.570215,24141
223-222@63f-yry-8sq,sg:c22c52a86dfc44b3ad981fb216704095,Justin Tebbenkamp DDS,1305 N Main St,Blacksburg,621210,37.244353000000004,-80.416852,24060
224-222@63f-rw3-qxq,sg:56409c245f0242e696b2045dba190d00,Amelia's Pizzeria & Restaurant,1130 Cambria St NE,Christiansburg,722511,37.14432,-80.40484599999999,24073
22j-222@63r-syc-r8v,sg:5c293ff5412f4d0f8b8a2983ecd7bfe8,Dermatology Center of Loudoun,19455 Deerfield Ave Ste 311,Lansdowne,621111,39.077579,-77.477058,20176
zzw-226@63r-syc-psq,sg:a2030fcee8a64bb6a22c0b3d9af3b5e7,Monique Renee Rolle Lansdowne Podiatry,44135 Woodridge Pkwy Ste 180,Lansdowne,621111,39.076812,-77.471627,20176
223-223@63r-syc-qzz,sg:e055dbc229b443e3b261dc04968af0f1,Chi George Zhao MD Virginia Heart,44035 Riverside Pkwy Ste 400,Lansdowne,621111,39.075238,-77.478491,20176
zzw-225@63r-syb-pjv,sg:7ac176cbcc3b42a4874797434210f09c,Virginia Surgery Associates,44055 Riverside Pkwy Ste 226,Lansdowne,621111,39.074334,-77.476907,20176
222-222@63f-rt2-ffz,sg:9384dd49e24147cd826e1a062194d27a,Fairways Grill,1581 Turnberry Ln,Riner,722511,37.076878,-80.442492,24149
zzw-223@63f-yc3-t9z,sg:cf35bad23aa94ab0bc779154fa1218f9,Hedges David J MD PC,110 Professional Park Dr SE Ste 5,Blacksburg,621111,37.197055,-80.400743,24060
225-224@63f-rvs-2c5,sg:3b43bf5cbf1748a5b7b8ed59ce9854ba,CORA Physical Therapy Christiansburg,209 Roanoke St,Christiansburg,621340,37.129937,-80.403068,24073
zzy-224@63r-srr-nt9,sg:9c45e9bf242245e298cad40ce7e89115,El Pollo Rico,506 E Market St Ste B,Leesburg,722511,39.110018,-77.552441,20176
225-222@63f-rw4-4jv,sg:37d99fd082414ba49fa8bf9a32bd98f3,Kimberly A Caldwell P A,120 Akers Farm Rd,Christiansburg,621111,37.146938,-80.413453,24073
224-223@63f-yb4-jgk,sg:bddaccdd335d454f86b0a8562b1bc362,Panda Chinese Restaurant,7440 Lee Hwy,Fairlawn,722511,37.142717,-80.58166700000001,24141
zzz-222@63f-yry-hbk,sg:ee2e58bed19142b68882a33f7e531490,Lucas Drive Lot,611 Lucas Dr,Blacksburg,712190,37.240801,-80.408609,24060
223-222@63f-wg2-ckf,sg:d51215b9bdd14091b71c603762c1372e,Alley's Country Store,1790 Alleghany Spring Rd,Shawsville,445110,37.13139,-80.264266,24162
22f-222@63r-sry-dgk,sg:1725e36da899419eabefd882cc37ea99,Leesburg Sterling Family Practice,116Q Edwards Ferry Rd NE,Leesburg,621111,39.11564,-77.561105,20176
zzz-222@63f-wgj-tsq,sg:6c8cb6cecf8045c5a2582db09a3799b8,Ellett Valley Recreational Area,1087 Jennelle Rd,Blacksburg,712190,37.184681,-80.37679,24060
225-224@63f-rvs-3t9,sg:4c9cf54dfdce455992435ba94aa7e0bb,Renee Y Lima DNP,205 Roanoke St,Christiansburg,621111,37.129907,-80.403524,24073
228-222@63r-srz-sbk,sg:b384028327f9469596a414296809056f,John L Parker DDS,19 Fort Evans Rd NE Ste E,Leesburg,621210,39.107182,-77.54677099999999,20176
224-222@63f-yc3-59f,sg:453858c5c46f4f29b59de583cda5fe3c,El Mariachi,3703 S Main St,Blacksburg,722511,37.185368,-80.407787,24060
zzw-222@63f-ybx-49z,sg:bca668d773384b9096f2c71525252472,Total Motion Physical Therapy,227 Central Ave,Christiansburg,621340,37.14952,-80.414047,24073
226-222@63f-rvs-2c5,sg:b8031938cd144ede8c4f17dfccd658e8,Blacksburg P T,209 Roanoke St Ste 1A,Christiansburg,621340,37.12995,-80.403046,24073
zzw-223@63f-y8x-rff,sg:e573756c3c534546b4b82bb8fa18ddc3,Riverway Store,4338 Prices Fork Rd,Prices Fork,445120,37.208177,-80.495006,24060
zzz-222@63f-yrx-9mk,sg:12cc82905c70452480644fb58e8d9ea7,Undeveloped Park,Mountain Breeze Dr,Blacksburg,712190,37.257325,-80.41005,24060
224-223@63f-yb5-249,sg:204c1acb5712413a80b7675dd21a2f32,Nagoya Sushi,1144 E Main St,Radford,722511,37.141121000000005,-80.557803,24141
222-223@63r-stm-hnq,sg:ab9c25bbf31f45769d5feba7bd71cf8a,Ball's Bluff Elem,821 Battlefield Pkwy NE,Leesburg,611110,39.123232,-77.534588,20176
223-222@63f-ybf-w6k,sg:6f9c19032c94457e8bd1b991f1fd1170,Himalayan Curry Cafe,781 University City Blvd,Blacksburg,722511,37.233740000000004,-80.43401300000001,24060
223-223@63f-ybm-qzz,sg:3f379afb87b743f09d32ad9a65aa9142,Hethwood Dental of Blacksburg,907 Hethwood Blvd,Blacksburg,621210,37.217081,-80.454913,24060
zzy-222@63r-srr-nqz,sg:bc88190b47ed4042b0564ff36a2e2c2a,Giant Food,61 Catoctin Circle N.E. Leesburg Plaza,Leesburg,445110,39.111453000000004,-77.553127,20176
223-222@63f-ybv-b6k,sg:1c21af30156a4416833658cc6434fa88,Kabuki Japanese Steak House,120 Arbor Dr,Christiansburg,722511,37.169174,-80.418875,24073
zzw-222@63f-y9z-c89,sg:7538951b92994f1a8e211eee945a6917,Radford City Health Department,220 E Main St,Radford,452210,37.134706,-80.538754,24141
22d-223@63r-syc-2hq,sg:dbb0e6733a8a45faa5ba798442874bd3,Inova,44045 Riverside Pkwy Fl 1,Lansdowne,621111,39.074022,-77.47755,20176
22b-222@63f-yc2-f9f,sg:0a92cfaa75e34148841c01fce6d7ef98,China Garden,1572 N Franklin St,Christiansburg,722511,37.150745,-80.41675500000001,24073
222-224@63f-s3r-2tv,sg:00ea0143187347e2bc5de4a6d95ffab2,Carilion Clinic Vascular Surgery,2900 Lamb Cir Ste 301,Christiansburg,621111,37.088854,-80.505177,24073
zzw-222@63f-wgh-7h5,sg:9db1c38f734547bd8a8bec695b6c1120,Farhi Vision & Glaucoma Specialists,1901 S Main St Ste 1,Blacksburg,621111,37.207512,-80.39865400000001,24060
zzw-22b@63r-syc-qj9,sg:afb31cea267c46ae91e87937f8155c54,Loudoun Rheumatology Center Leesburg,19465 Deerfield Ave,Lansdowne,621111,39.078216999999995,-77.478468,20176
223-222@63r-syb-pjv,sg:96b7e0830ef041b1be8572abf35cc5d2,Loudoun Internal Medicine Associates,44055 Riverside Pkwy Ste 116,Lansdowne,621111,39.073725,-77.476955,20176
22k-222@63r-syc-2hq,sg:cd4029dd5e9644319b92ca3535d043ba,Gastrointestinal Medicine Associates,44055 Riverside Pkwy Ste 242,Lansdowne,621111,39.074008,-77.47784300000001,20176
222-222@63r-stk-73q,sg:f066346eb92b4b6abbe302521d898afa,Smart's Mill Middle,850 N King St,Leesburg,611110,39.132859,-77.54786800000001,20176
222-223@63f-y8w-7qz,sg:4489d7d2b1ed456da4505d5aff067ea3,Belview Elem,3187 Peppers Ferry Rd,Belview,611110,37.170372,-80.51106300000001,24141
zzw-223@63r-syb-pjv,sg:e166a60c069042e89f46272d887a629c,Surgical Specialists,44055 Riverside Pkwy Ste 246,Lansdowne,621111,39.073838,-77.476582,20176
zzw-222@63r-syc-qfz,sg:87f58dcadbcb44beae3241da5e174dcb,Kelly Boardman PA C,19415 Deerfield Ave,Lansdowne,621111,39.079402,-77.47788800000001,20176
229-223@63f-ybq-nqz,sg:e136414cc862464190d07e0f042a7a6a,Ceritano's Ristorante,428 N Main St,Blacksburg,722511,37.231978000000005,-80.416112,24060
225-222@63r-syb-zvf,sg:624d4aa07bc04f3abdc7c0d0eb251211,Shady Grove Fertility Center,19500 Sandridge Way Ste 280,Lansdowne,621111,39.076223,-77.48035300000001,20176
22p-222@63f-ybp-m49,sg:80692668c9214dfaaa6328f560d3395c,Happy Wok,133 College Ave,Blacksburg,722511,37.230222999999995,-80.415745,24060
222-223@63r-syb-zzz,sg:91d7e8149bed4f069715a2e5e0c13c02,Kaila Mullaly PA C,19490 Sandridge Way,Lansdowne,621111,39.076829,-77.48184499999999,20176
zzy-222@63r-srz-sbk,sg:b3db7f9cc42140a9a1ce938f9954c2ee,Xuan Saigon,15 Fort Evans Rd NE,Leesburg,722511,39.107189,-77.547574,20176
222-222@63f-wgh-94v,sg:8919d94e63f04d1a9d4c37090aa40d8c,McClain's,1614 S Main St,Blacksburg,722511,37.211937,-80.401588,24060
222-222@63f-rw3-4y9,sg:ad6a10c15ed646ef9305c9a9511e84c3,Independence Secondary,208 College St,Christiansburg,611110,37.128689,-80.41385,24073
zzz-222@63f-wgh-jn5,sg:08d23712fff8463c8611b48fbd4f15bb,Dehart Street Tot Lot Park,507 Dehart St,Blacksburg,712190,37.210004,-80.406023,24060
zzz-222@63r-sry-7bk,sg:36188b25ae5648808609b99a2b646b2d,Ida Lee Park,60 Ida Lee Dr NW Leesburg Va 20176,Leesburg,712190,39.124088,-77.565963,20176
22r-226@63r-ss3-snq,sg:499ebc75860d494fb20404784c3f239e,Bryan Spillare MPT,224D Cornwall St NW,Leesburg,621340,39.11939,-77.569037,20176
223-222@63f-s3r-2tv,sg:ffe9eedbd5e24da3884b0bf1b71057f2,Jill Devlin D O,2900 Lamb Cir Ste 202,Christiansburg,621111,37.088833,-80.505121,24073
222-222@63f-yc2-c89,sg:3e444461de504bbbae4aa520ce627e90,Red Lobster,75 Peppers Fry Rd NW,Christiansburg,722511,37.163885,-80.42534,24073
224-222@63f-ybf-w8v,sg:d9e69821374b4c2fbc3e598e4193ed49,Marco & Luca,725 University City Blvd,Blacksburg,722511,37.232915999999996,-80.433854,24060
222-223@63f-s3r-5mk,sg:9d10d3b380ac4567b003fa6de4c897eb,Pennell Wayne MD OB Gyn,2875 Barn Rd,Christiansburg,621111,37.091883,-80.505728,24073
222-222@63r-ss3-v4v,sg:050e7631773b450699b662ca3f227361,Lansdowne Internal Medicine,224D Cornwall St NW Ste 302,Leesburg,621111,39.119981,-77.56920500000001,20176
222-222@63f-s3r-2tv,sg:5ef37e71af59421bba7be7f68a8f5e51,Michael S Donovan DO,2900 Lamb Cir Ste 301,Christiansburg,621111,37.089261,-80.505615,24073
zzw-222@63f-ybx-2c5,sg:26b2653ac39b46c5a5257e9a09fa7167,Alejandro's Mexican Grill,1635 N Franklin St,Christiansburg,722511,37.151338,-80.412485,24073
zzy-223@63f-s4s-t5f,sg:530fcdb24f6d459a9238df2fb376ee58,Benjamin H Morgan DO,701 Randolph St Ste 120,Radford,621111,37.129353,-80.568407,24141
zzw-226@63f-s3r-2tv,sg:f956a262e2f44756adcb01104c7313e0,Carilion Children's Pediatric Surgery NRV,2900 Lamb Cir Ste 300,Christiansburg,621111,37.088858,-80.505138,24073
222-222@63r-ss2-cdv,sg:1534ea4d4c284a638249203f57c27956,Pollo Inti II,546 Fort Evans Rd,Leesburg,722511,39.105754,-77.527147,20176
zzw-224@63f-wgh-92k,sg:733d0b1f034f45aa979503db5dcd4903,El Rodeo,1540 S Main St Ste 100,Blacksburg,722511,37.212992,-80.40134300000001,24060
222-222@63r-tdj-yvz,sg:e4d433a8771e41ad9c9427bd641fba16,White's Ford Regional Park,43646 Hibler Rd,Leesburg,712190,39.1932,-77.485878,20176
22f-224@63r-sry-dgk,sg:7da038232f734282be74bd1c1231d0a5,Cheryl Brown FNP BC,116Q Edwards Ferry Rd NE,Leesburg,621111,39.11489,-77.561356,20176
223-222@63f-s4s-fvf,sg:acffbffb7dbd41deadb85fd504e59238,Latino's Taste,1126 W Main St,Radford,722511,37.125956,-80.586608,24141
223-224@63r-syc-pn5,sg:56fce00a88154ba19375ba2fad1a166b,Heart & Vascular Specialists,19450 Deerfield Ave Ste 325,Lansdowne,621111,39.076966999999996,-77.475081,20176
22h-222@63f-ybq-mp9,sg:b7486b48a4324189bae5fdbf4c2343b6,El Rodeo,623 N Main St,Blacksburg,722511,37.234034,-80.419671,24060
228-222@63r-syc-pn5,sg:111324cf750947bd886bcf81ef2d2a1b,Women's Wellness and Cosmetic Laser center,19450 Deerfield Ave Ste 245,Lansdowne,621111,39.077077,-77.47519100000001,20176
zzw-227@63f-s3r-2tv,sg:24d98b1433f34c4c9c7ac24c094068b9,Ryan N Harris DO,2900 Lamb Cir Ste L 760,Christiansburg,621111,37.089006,-80.50510600000001,24073
zzz-222@63r-syj-wzf,sg:e15aaef9d59546e2b449b863c2582194,Elizabeth Mills Riverfront Park,Elizabeth Mills Riverfront Park,Lansdowne,712190,39.088895,-77.469516,20176
223-222@63r-syb-zzz,sg:7a1524b2098745b490f42a9efd6243f8,Riverside Dental Family & Cosmetic Dentistry,19490 Sandridge Way Ste 110,Lansdowne,621210,39.076826000000004,-77.48184599999999,20176
zzw-226@63r-syb-zzz,sg:fb2c7bd1b510449c81fc8444809d2df4,Virginia Center for Neuroscience,19490 Sandridge Way Ste 260,Lansdowne,621111,39.07683,-77.481874,20176
223-222@63f-wgg-8sq,sg:2f94b2d2071e4fa394c55917af807c4c,Deli Mart Ellett Valley,900 Lusters Gate Rd,Christiansburg,445120,37.191972,-80.366395,24073
zzw-227@63r-ss3-q4v,sg:9236441eef96498d973254a3a008f4d6,LMG Cornwall Primary Care,211 Gibson St NW Ste 215,Leesburg,621111,39.118998,-77.567716,20176
223-222@63r-srz-rc5,sg:eb11f6222a114227aac2b054cfecb4cf,Capital Women's Care,161 Fort Evans Rd NE Ste 320,Leesburg,621111,39.10842,-77.541364,20176
zzy-222@63f-yc2-b8v,sg:4bea869a6c9f4a14a2479972a27471db,ALDI,2265 N Franklin Street,Christiansburg,445110,37.160525,-80.420517,24073
zzz-222@63f-ybn-vxq,sg:45d23d28081e4b3e80e819c466df44d9,Seneca Drive Park,1500 Seneca Dr,Blacksburg,712190,37.248740999999995,-80.42335200000001,24060
224-223@63r-sy9-8jv,sg:d737927cfcb44f55bc76d81a62103970,Your Community Smile,19420 Golf Vista Plz Ste 210,Lansdowne,621210,39.07826,-77.483448,20176
zzw-237@63f-s3r-2tv,sg:01a5f92535ab4e3d915577d42d7dafda,Amy L Gray N P,2900 Lamb Cir Ste 7 700B,Christiansburg,621111,37.089271000000004,-80.50562,24073
227-222@63f-ybq-9cq,sg:847d733dc44f49b98010d7f25e7d9988,Dayspring Christian Academy,505 Clay St SE,Blacksburg,611110,37.231390999999995,-80.406797,24060
225-222@63r-syc-2hq,sg:5eb22b498c0d49469cf2f6f510135e3e,Inova,44035 Riverside Pkwy Ste 100,Lansdowne,621111,39.074289,-77.478026,20176
225-222@63f-rvs-3t9,sg:904e3dd10cdf4cddbf5383705c51eedd,Carilion Family & Obstetric Medicine Christiansbrg,205 Roanoke St,Christiansburg,621111,37.129886,-80.40368199999999,24073
22g-222@63r-syb-zvf,sg:b4c8a3b72ab34b49871869361d1c7db3,The Virginia Retina Center,19500 Sandridge Way Ste 240,Lansdowne,621111,39.076394,-77.480338,20176
zzw-223@63r-syb-pd9,sg:4db08b3065774084aa253afa8bc50305,Inova,44055 Riverside Pkwy Ste 234,Lansdowne,621111,39.073743,-77.474726,20176
229-222@63r-syc-nyv,sg:b1e36cd2f37949989f9b8b1283f93b6b,Lansdown Travel & Family Medicine,19415 Deerfield Ave Ste 103,Lansdowne,621111,39.079408,-77.477489,20176
223-222@63f-ybn-yjv,sg:fd608f29bbe44baa99f21e330c2c219e,Abby's,1001 N Main St,Blacksburg,722511,37.238797,-80.42053,24060
222-225@63f-s3r-2tv,sg:c55bd5d69276472c9ad09c989baedb95,Carilion Clinic Cardiology New River Valley,2900 Lamb Cir Ste 301,Christiansburg,621111,37.08927,-80.505662,24073
zzw-224@63f-wgz-6c5,sg:91cadd61eab047c3b664d2523151c60c,Hunan House,2100 Roanoke St,Christiansburg,722511,37.135839000000004,-80.369491,24073
229-223@63r-syc-nyv,sg:ba760c8f3912480382f096e45c1bb0df,Reliant MD Group Suman Manchireddy MD FACP FHM,19415 Deerfield Ave Ste 103,Lansdowne,621111,39.079392999999996,-77.477538,20176
223-222@63r-ss2-dn5,sg:86bdd24a59ce4feca1662b1d92eaac47,Ross Stores,1023 Edwards Ferry Rd NE,Leesburg,452210,39.111542,-77.535318,20176
223-222@63f-tx6-2rk,sg:f64d671dd51a4209aa9908b66cdae3ec,Waffle House,4614 Cleburne Blvd,Dublin,722511,37.082370000000004,-80.689931,24084
zzz-222@63f-rvr-kj9,sg:bac6a739d0ff4ee4a83db77d6b795080,Town And Country Park,305 Summit Ridge Rd,Christiansburg,712190,37.118767,-80.401513,24073
222-224@63f-s3r-5mk,sg:204e15f29fdf4d98b512f6e96497728d,Obgyn,2875 Barn Rd,Christiansburg,621111,37.091805,-80.505794,24073
zzy-222@63r-ss2-fcq,sg:164837cd69e6439d9a21d1d00e57572c,Parker & Rhodemyre DDS,Fort Evans Rd NE Ste A,Leesburg,621210,39.110541999999995,-77.535321,20176
zzw-223@63r-srr-nnq,sg:17eff5dfd63641d99fc02b38bf922482,Douglass School,407 E Market St,Leesburg,611110,39.109536,-77.554863,20176
22r-22g@63r-ss3-snq,sg:1bd9ea9d605e48cc85fe0ef6551f48c4,Nicole Legare PTA,224D Cornwall St NW,Leesburg,621340,39.119391,-77.56902,20176
222-222@63r-syc-nyv,sg:f1e40ef001e743b29595d27499dd0e22,Barbara Petty WHNP,19415 Deerfield Ave,Lansdowne,621111,39.079345,-77.477125,20176
222-222@63f-rw4-3yv,sg:89fcb5f0ea35445eaabbe303c0916b92,Sharlene D Amacher D D S,105 Akers Farm Rd,Christiansburg,621210,37.148326000000004,-80.414278,24073
zzz-222@63f-ybr-xbk,sg:e251a81dd567422483f64da5026fb367,Westover Park,1907 Lindale Dr,Blacksburg,712190,37.238051,-80.44973399999999,24060
22r-22b@63r-ss3-snq,sg:53e36297e830420a9e8e50dbf07b12a8,Dulles Medical Group Leesburg,224D Cornwall St NW,Leesburg,621111,39.119959,-77.568731,20176
22c-222@63f-rvs-3nq,sg:b01f9a433f7d43e9a358df78a2cf778e,NRV Eye Center PC,106 S Franklin St Ste C,Christiansburg,621111,37.128958000000004,-80.406488,24073
zzw-222@63f-s4t-3bk,sg:41c38d4a0b88471a8071958b95a36ecf,El Charro Mexican Grill,713 W Main St,Radford,722511,37.130663,-80.582124,24141
222-223@63f-wgh-nbk,sg:f2a0630998f2478aa8921f4743f6328c,Margaret Beeks Elem,709 Airport Rd,Blacksburg,611110,37.214046,-80.40596500000001,24060
zzw-22s@63f-s3r-2tv,sg:f37908d33cbe4109b41d9ffb90c57d72,Steven J Holley DO,2900 Lamb Cir Ste 300,Christiansburg,621111,37.089254,-80.505617,24073
zzw-22f@63f-s3r-2tv,sg:6d135fe502b644a7aa64ad4275aa0812,Carilion Children's Pediatric Endocrinology New River Valley,2900 Lamb Cir,Christiansburg,621111,37.088864,-80.50515,24073
222-222@63f-ybv-7yv,sg:29420e28d9b64698abc10a1691ede0ed,El Gran Rodeo,200 Laurel St,Christiansburg,722511,37.162743,-80.41914799999999,24073
zzy-222@63f-tx4-xqz,sg:8466e5aab354454e857f4cb15879f830,Chad T Lard D O,118 Broad St,Dublin,621111,37.103691,-80.688509,24084
223-222@63r-t9f-d5f,sg:746da6cfc9d642de8066f1da98bc9e5a,Phillips Building Futures Loudoun,13850A Freedom Center Ln,Leesburg,611110,39.231099,-77.553064,20176
zzw-222@63f-y8y-cnq,sg:53aa3e8041da49efb9dbbd7392419915,Prices Fork Elem,4021 Prices Fork Rd,Prices Fork,611110,37.210196999999994,-80.486436,24060
zzz-222@63f-ybr-28v,sg:676a3cd7c6b045af8715ab62cf1b198e,Heritage Community Park and Natural Area,2300 Glade Rd,Blacksburg,712190,37.239857,-80.458506,24060
zzw-225@63f-tx6-389,sg:3961af27453844569eb95eb056105ae9,7-Eleven,4625 Cleburne Blvd,Dublin,445120,37.082972999999996,-80.691073,24084
22y-222@63r-srr-p7q,sg:be50acf1483f42a69be6c96e23ac6311,Red Bar Sushi,525 E Market St Ste F,Leesburg,722511,39.108155,-77.552774,20176
zzz-222@63f-rvv-cyv,sg:0d2ffba9562d4a299dc6eb8c1cb88607,Wall Street Park,1300 Wall St NW,Christiansburg,712190,37.124824,-80.434341,24073
22c-222@63f-ybp-ysq,sg:2848c0a9c0694c898f3e29f96e5b4485,Origami,409 Old Turner St,Blacksburg,722511,37.23105,-80.42274599999999,24061
22g-222@63r-srr-p7q,sg:a1efab903cc24af48e491cdff185b465,Melt Gourmet Cheeseburgers,525 E Market St Ste J,Leesburg,722511,39.10812,-77.552695,20176
223-222@63f-ybq-mx5,sg:fe39b90b91c44b25bce304b00ae3c6b3,VelocityCare Blacksburg,215 Gilbert St,Blacksburg,621493,37.23362,-80.42043000000001,24060
224-222@63f-rvv-vzz,sg:fa9b4253be394d7aa5b1763428fbfb15,Deli Mart,1270 W Main St,Christiansburg,445110,37.118375,-80.42085,24073
227-222@63f-ybf-w6k,sg:e90f0437f51040fa8341715ff16d0e45,Sushi Factory,801 University City Blvd Ste 15,Blacksburg,722511,37.233737,-80.434278,24060
224-223@63f-rw3-54v,sg:25277f4c9dc745a3b39a2f60780c2332,Munz Ray DDS,103 College St,Christiansburg,621210,37.129208,-80.411893,24073
225-222@63r-srr-p35,sg:344b716437b24bb58b97eed9d5f9ee25,Red Hot and Blue Restaurants,541 E Market St,Leesburg,722511,39.107997999999995,-77.551404,20176
223-222@63r-syc-2hq,sg:8754b23c61b84add83913e2957ebf833,Inova,44035 Riverside Pkwy Ste 200,Lansdowne,621111,39.073984,-77.47783199999999,20176
zzz-222@63f-wgw-ks5,sg:a5b58cbb83bd494f9e8d5deadccae272,Wayside Park,4200 Wayside Dr SE,Christiansburg,712190,37.140871000000004,-80.323246,24073
zzw-226@63r-syb-pjv,sg:f33fd65355734707bc9467fa7288a8ad,United Spine and Joint Center,44055 Riverside Pkwy Ste 216,Lansdowne,621340,39.073741,-77.477,20176
222-223@63r-stk-2c5,sg:1f366bfe14814bccbbc962d3971db81c,Metropolitan Psychiatric Group,42009 Victory Ln,Leesburg,622110,39.145826,-77.546669,20176
223-223@63f-yc3-mzf,sg:6e2a5580ee2b4d28af063f1897d8c385,Carilion Clinic Cosmetic Center Blacksburg,817 Davis St Ste 2,Blacksburg,621111,37.186661,-80.414142,24060
zzw-222@63f-yb4-j35,sg:5a1753c1b1a645cc87f598bbf02b58c1,Kroger,7480 Lee Hwy,Fairlawn,445110,37.141659000000004,-80.580339,24141
223-222@63r-sry-2p9,sg:03f307a6c9444a6abbd391f97a1061bf,USA Market,64 Plaza St NE,Leesburg,722511,39.110333000000004,-77.547702,20176
22d-222@63f-ybp-mff,sg:3bbc91b9d7924bf8baa3639b7e58b269,Moe's Southwest Grill,239 N Main St,Blacksburg,722511,37.230495,-80.41533199999999,24060
22h-223@63r-syc-2hq,sg:6741f3bfb185446f80d38b54863c4961,Inova,44055 Riverside Pkwy Ste 104,Lansdowne,621111,39.073948,-77.477767,20176
zzy-224@63f-s3r-2tv,sg:f778ca0ada92474697ffa952cd7e6eb0,Kimberly T Wilson NP,2900 Lamb Cir,Christiansburg,621111,37.089282,-80.50563000000001,24073
225-222@63r-syc-psq,sg:84d742d18c6848629e507cb5aabf1413,Loudoun Family and Cosmetic Dentistry,44125 Woodridge Pkwy Ste 160,Lansdowne,621210,39.077394,-77.472026,20176
zzw-224@63r-syc-r8v,sg:dde9ad1b8739420ab033397aa1bc290c,Harmeet Singh MD Clinical Neurology,19455 Deerfield Ave,Lansdowne,621111,39.07751,-77.476961,20176
zzw-22c@63f-s3r-2tv,sg:5ebfc77c7ffb417c8ececb8622f0e0f4,Carilion Children's Pediatric Cardiology New River Valley,2900 Lamb Cir,Christiansburg,621111,37.088838,-80.505127,24073
229-222@63f-yb5-52k,sg:2a34a08760e14881a1b724b86c11a61e,Screamers Sports Grill,1003 E Main St,Radford,722511,37.140939,-80.554704,24141
zzz-222@63f-rw3-2tv,sg:16aea67d52f44184be62f8f9662cde94,Downtown Park,55 College St,Christiansburg,712190,37.130882,-80.41194300000001,24073
228-223@63r-syc-qj9,sg:7d6d461c64214b29a6767f71b8553308,Richard J Lee DMD MS MPH Loudoun Orthodontics,19465 Deerfield Ave Ste 304,Lansdowne,621210,39.078222,-77.478482,20176
222-222@63f-yc3-92k,sg:225d7fb527ed4ee6aa2be7577b6ff608,Foot Ankle Clinic of the Virginias,3708 S Main St,Blacksburg,621111,37.186558000000005,-80.409154,24060
228-222@63f-rw3-3h5,sg:d4aa6f31c1fa4409a65ca07331808946,LewisGale Physicians Christiansburg Internal Medicine,10 Hickok St,Christiansburg,621111,37.128822,-80.40954599999999,24073
zzy-222@63r-syc-pn5,sg:f32fa14336c54852a021fe3fc7f92db0,NOVA Interventional Pain and Spine,9450 Deerfield Ave Ste 280,Lansdowne,621111,39.076983,-77.47511999999999,20176
zzw-222@63f-rvs-3t9,sg:2b369c05151a4d3dabfe55077afeff65,Montgomery County Health Department,210 Pepper St S Ste A,Christiansburg,452210,37.129437,-80.404119,24073
22n-222@63r-ss3-snq,sg:7887892f85d84346957af2672e39ccb0,Cardiac Care Associates,224D Cornwall St NW Ste 306,Leesburg,621111,39.119408,-77.569025,20176
222-222@63f-tx7-t5f,sg:f7aa241929da440b913c9806b982c0de,Campbell David W,4676 Lee Hwy,Dublin,621111,37.099039000000005,-80.71977700000001,24084
zzy-222@63f-rt4-3kf,sg:fd68c2b575094f299aaeef417a665ba3,Buffalo & More,4041 Riner Rd,Riner,722511,37.065589,-80.441691,24149
222-223@63f-tx7-st9,sg:bf33b4744082457e800e6e28095bd5eb,Stephen C Tupman DDS,4664 Lee Hwy,Dublin,621210,37.099011,-80.720161,24084
225-223@63f-rw4-4jv,sg:ddfb8b3f63a44f74b7a4a81f06215c8f,Katelyn R Baltes PA,120 Akers Farm Rd,Christiansburg,621111,37.146984,-80.413455,24073
zzw-223@63f-wgj-brk,sg:2007c77aa5fc4e92af7859014d6374a2,Kroger,1322 S Main St,Blacksburg,445110,37.216632000000004,-80.40271,24060
223-222@63f-rw3-k9f,sg:2b15c18bf39c4e1b9195291a131d90c2,New River Valley Juvenile Detention Home,650 Wades Ln,Christiansburg,611110,37.133885,-80.423371,24073
zzz-222@63f-wgh-bp9,sg:7a3d8c1208184399a3542a6dc0183517,Cedar Hill Park,304 Cedar Hill Dr,Blacksburg,712190,37.203939,-80.39439499999999,24060
224-224@63f-s4s-t9z,sg:bd430da2f6bb4301aee8120a9266ade0,New River Physical Therapy,601 Harvey St,Radford,621340,37.129814,-80.570627,24141
zzy-222@63f-ybf-2c5,sg:adbc2f3909b647d3904402c88e7822ca,Lindsay Call D O,901 Plantation Rd,Blacksburg,621111,37.224771999999994,-80.444358,24060
222-223@63f-yrv-sqz,sg:cba05b174bbf48dd9a4d40152864a48a,Gateway Christian School,2196 Harding Rd,Blacksburg,611110,37.244310999999996,-80.366457,24060
zzw-222@63r-syb-pd9,sg:5fd957a30103409284ba976a4740a763,Inova,44055 Riverside Pkwy Ste 114,Lansdowne,621111,39.073729,-77.474717,20176
222-228@63r-syb-zzz,sg:8bcfba0ed73647e6ada1c9811c1018ac,Monica Del Campo Parco FNP BC,19490 Sandridge Way,Lansdowne,621111,39.076829,-77.481832,20176
zzz-222@63r-src-hqz,sg:1576860996fa41e98c2c5f00f6e13bdb,Morven Park,17269 Southern Planter La Leesburg Va 20176,Leesburg,712190,39.142036,-77.570088,20176
zzw-22y@63f-s3r-2tv,sg:f04baa19dd5043ec8deefbe34ea75446,David E Johnsen M D,2900 Lamb Cir,Christiansburg,621111,37.08928,-80.505648,24073
223-222@63r-srz-py9,sg:0eb6743e3b5443be9f7cec0f442a4a49,Anita's New Mexico Style Mexican Food,5 Fort Evans Rd NE,Leesburg,722511,39.106999,-77.547937,20176
222-223@63f-s3r-2tv,sg:f3c32a1e6ea54c67ba5f47968c9f84ed,Carilion Clinic Cardiology NRV,2900 Lamb Cir Ste 301,Christiansburg,621111,37.089273999999996,-80.50564200000001,24073
zzw-227@63r-syc-2hq,sg:24091292879744238c30c6cd121059bf,Moira Hanley Nieman PA C,44055 Riverside Pkwy,Lansdowne,621111,39.073996,-77.477852,20176
222-222@63f-tx7-td9,sg:36401258a3354600848eeaccf0face18,Children's Choice of the New River Valley,5562 Cougar Trail Rd,Dublin,621111,37.097091999999996,-80.718273,24084
22c-222@63r-syc-pn5,sg:539887e4df034fc693680ad04dbe3441,Landsdowne Foot and Ankle Center,19450 Deerfield Ave Ste 280,Lansdowne,621111,39.077073,-77.475211,20176
zzw-224@63r-syb-pjv,sg:2592ecd685434821a809973c5f3d986b,Achilles Foot & Ankle Center,44055 Riverside Pkwy Ste 228,Lansdowne,621111,39.074345,-77.476912,20176
237-222@63f-ybp-mkz,sg:81c849c2ea6f4593a92657637b25f3b7,Cook Family Dentistry,301 S Main St Ste 109,Blacksburg,621210,37.228009,-80.412071,24060
zzz-222@63f-w7p-7bk,sg:272a50d148a6464ca6795316d333eded,Montgomery County Park,5001 Enterprise Dr,Elliston,712190,37.229283,-80.209953,24087
222-222@63f-s3r-5mk,sg:d36a641a15194ae5bcbd970b3f23babc,Pennell Wayne Gyn,2875 Barn Rd,Christiansburg,621111,37.091895,-80.50569300000001,24073
zzz-222@63f-yry-grk,sg:63b9f8d191c24125a903504ac0fa8e06,Municipal Park Complex,920 Turner St NE,Blacksburg,712190,37.241727000000004,-80.410267,24060
zzy-222@63f-wg7-8gk,sg:d6886ba476ef4d728f1758f54ada3dd6,Carilion Clinic Family Medicine Shawsville,6920 Roanoke Rd,Shawsville,621111,37.168167,-80.25718,24162
22m-222@63r-syc-2hq,sg:64e8302402ae45d4a11a0a891987f313,Cardiac Care Associates,44055 Riverside Pkwy Ste 244,Lansdowne,621111,39.074391999999996,-77.477118,20176
zzw-23d@63f-s3r-2tv,sg:6804defb68b240fbafd8c715a442c4d9,Carilion Clinic Imaging Carilion New River Valley Medical Cent,2900 Lamb Cir,Christiansburg,621111,37.088716,-80.505135,24073
222-222@63f-yb4-b49,sg:2838e389604e413a840c119be3dee036,Radford High,50 Dalton Dr,Radford,611110,37.135452,-80.570073,24141
222-222@63f-yry-zfz,sg:611ee406fd8d4561a2802bdc6f236b8b,Family Medicine of Blacksburg LLC,1645 N Main St,Blacksburg,621111,37.252573,-80.411287,24060
226-222@63f-rw3-3yv,sg:d6348dafd12e4221989cb4bb11c39c53,Macado's,19 W Main St,Christiansburg,722511,37.129492,-80.40971400000001,24073
zzz-222@63f-s4k-4y9,sg:78e22f7295b54babb621380f3346946d,River View Park,River St,Radford,712190,37.108988000000004,-80.59183900000001,24141
222-222@63f-s36-z75,sg:5049043c2c4a46f0b306449721b4cd0e,Omelet Shoppe,5150 State Park Rd,Dublin,722511,37.086321000000005,-80.649826,24084
zzw-224@63f-ybf-2c5,sg:c6729dd08f3c47c29f8de9e0ed490813,Carilion Clinic Pulmonary Medicine Blacksburg,901 Plantation Rd,Blacksburg,621111,37.224758,-80.444252,24060
225-222@63r-sry-d7q,sg:57a8d8f4303f4c638b46967b506a69f9,Lightfoot Restaurant,11 N King St,Leesburg,722511,39.115911,-77.564574,20176
22c-222@63r-syc-nyv,sg:38ed5d71850c4223bcab9eff6ecd7bb9,Lansdowne Dental Associates,19415 Deerfield Ave Ste 207,Lansdowne,621210,39.079349,-77.477311,20176
223-222@63f-tx5-xh5,sg:bfa603e8990f4b94a7e8360b17fb1a1e,University Physical Therapy,5255 Alexander Rd,Dublin,621340,37.082015000000006,-80.69389699999999,24084
225-222@63f-y9z-q75,sg:67f92dbfcd624a008996832b4b5f975c,Bt's,218 Tyler Ave,Radford,722511,37.139091,-80.55348199999999,24141
227-222@63f-yc2-py9,sg:129bc8470dc842a885fe35c7ad7eeee8,VelocityCare Christiansburg,434 Peppers Fry Rd NW,Christiansburg,621493,37.161815999999995,-80.43252199999999,24073
222-222@63r-ss2-45f,sg:d0468e8cb9c9410eb86718bcae20c9d9,Leipzig Robert DDS,540 Fort Evans Rd,Leesburg,621210,39.106434,-77.526786,20176
zzw-222@63f-ybp-n3q,sg:928ac94a4a8c4acf9f1fc35600828c51,Real Life Smiles,202 S Main St Ste 101,Blacksburg,621210,37.228347,-80.413282,24060
zzw-224@63r-sy9-zfz,sg:bf72cc107f2e4aa1ad138b7b9d0df65d,In Room Dining,44050 Woodridge Pkwy,Lansdowne,722511,39.083525,-77.476056,20176
228-222@63r-syc-2hq,sg:270e10b308d54f3387cdd9aa98bcdc52,Capital Women's Care Leesburg,44055 Riverside Pkwy Ste 108A,Lansdowne,621111,39.074037,-77.477841,20176
zzz-222@63f-ybv-y9z,sg:9ed5890883594aa484d5a247470475e6,Mid County Park,380 Cinnabar Rd,Christiansburg,712190,37.171617,-80.415875,24073
zzw-222@63f-s3r-2tv,sg:5925b0f7b1694a328966627a150ad501,Mary Ellen C Mick DO,2900 Lamb Cir Ste 250,Christiansburg,621111,37.088882,-80.50517099999999,24073
22b-222@63f-wgh-92k,sg:b20ad86676d2484e94c73406f6b89355,Sake House,1560 S Main St Ste 116,Blacksburg,722511,37.212726,-80.40186899999999,24060
zzz-222@63f-ybg-t9z,sg:2ac760eb88cb4eff8ecdc629d640048a,Huckleberry Trail,201 Clay St SW,Merrimac,712190,37.204799,-80.420823,24060
zzw-225@63f-ybp-m49,sg:4fb1fd5846724572b55876eecbb3d633,The Milk Parlor,211B Draper Rd NW,Blacksburg,722511,37.229693,-80.416297,24060
222-222@63r-ss2-jgk,sg:828d862ab6184fb98861e56f62094534,IHOP,980 Edwards Ferry Rd NE,Leesburg,722511,39.114994,-77.53878900000001,20176
zzw-222@63f-ybp-zxq,sg:649d2554c59046e9808d52cafbc71615,Preston's Restaurant,901 Prices Fork Rd,Blacksburg,722511,37.229895,-80.42965,24061
225-222@63f-yb4-hbk,sg:5ee61133f8a8443d9617e9edb93ae70e,Cook Out,7400 Lee Hwy,Fairlawn,722511,37.144368,-80.583113,24141
225-222@63f-ybp-n3q,sg:0417d00ca24c4ef2a66792833e303a0a,Cabo Fish Taco,117 S Main St,Blacksburg,722511,37.228823999999996,-80.41314200000001,24060
zzw-227@63r-syb-zzz,sg:b741cef1b1594315a4ceefe34307e626,Nova Rehabilitation Inc Physical Therapy & Sports Medicine,19490 Sandridge Way Ste 170,Lansdowne,621340,39.076826000000004,-77.481837,20176
zzw-222@63f-ybp-m6k,sg:a6aa0310de044e18ba71a089c0464e9b,Benny Marzano's,110 Draper Rd NW,Blacksburg,722511,37.229426000000004,-80.415293,24060
222-223@63f-ybq-p9z,sg:6d9c91b5d590464290e3b0401b0d4c74,Benny Marzano's,210 Prices Fork Rd,Blacksburg,722511,37.234964,-80.421596,24060
zzw-222@63f-ybn-bc5,sg:356649ee88c64737b83ba4d86d87bedc,Gilbert Linkous Elem,813 Toms Creek Rd,Blacksburg,611110,37.236928000000006,-80.425025,24060
zzw-222@63r-ss2-h5z,sg:33c2213eb839447bb3927941b6bd57f8,Target,1200 Edwards Ferry Rd NE,Leesburg,452210,39.115717,-77.53441,20176
223-226@63f-s3r-2tv,sg:a0be400ab8774b1e81019f557698fb73,Carilion Clinic Obstetrics & Gynecology New River Valley,2900 Lamb Cir Ste 202,Christiansburg,621111,37.088865000000006,-80.50510600000001,24073
224-222@63f-yc3-9j9,sg:41f267ecafc441cb8c5203c6973d0525,Medical Associates of Southwest Virginia,810 Hospital Dr,Blacksburg,621111,37.188036,-80.409141,24060
223-222@63r-syc-q9f,sg:ca0ed2b759b74d16b4f6f83a1f4ab50f,Neven A Ujevic MD Leesburg,19465 Deerfield Ave,Lansdowne,621111,39.078728000000005,-77.481247,20176
227-222@63r-syc-sbk,sg:a8c14315db454d50965f238f57f425c2,Institute of Facial and Oral Surgery,44115 Woodridge Pkwy Ste 200,Lansdowne,621111,39.077815,-77.472396,20176
zzw-222@63f-ybt-zmk,sg:f7699f537a574c5ab5c5f7a17054097f,Carilion Clinic Outpatient Therapy Christiansburg,120 Ponderosa Dr,Christiansburg,621340,37.169917,-80.41896899999999,24073
22n-222@63f-ybp-mrk,sg:d656281aa20f41ae93a623597940bf61,Alexander Black House,204 Draper Rd NW,Blacksburg,712120,37.227677,-80.41403299999999,24060
22k-222@63r-ss3-snq,sg:576da48fb6e04c5ab7521cfa6c9f028a,Parva Plastic Surgery,224D Cornwall St NW Ste 300,Leesburg,621111,39.119599,-77.568907,20176
224-222@63f-rw3-2tv,sg:43b6a05c86e641d68c5b13a849f59946,Park Family Dentistry PC,114 N Franklin St,Christiansburg,621210,37.131364000000005,-80.411901,24073
223-223@63f-yb4-zs5,sg:92b23dd91c6c40b7acbad4f85c1f3794,Stephen D Mccuin DDS,116 3rd Ave,Radford,621210,37.140068,-80.558308,24141
223-222@63r-srm-5fz,sg:2f9c1c82212c45cdbccbb15fd424150e,Raspberry Plain Manor,16500 Agape Ln,Leesburg,621340,39.159440999999994,-77.548248,20176
zzw-229@63r-srz-rzf,sg:873dfd07962c48a2979ee9c85b46d493,Villa Italian Kitchen,241 Fort Evans Rd NE,Leesburg,722511,39.106017,-77.539192,20176
226-222@63f-yb6-g6k,sg:dbacc7e6f73640c6b457b38307290d7f,Deli Mart,407 Jefferson St,Radford,445120,37.134979,-80.548066,24141
222-223@63f-tx5-2c5,sg:e7963c27cab74e32a950155e90663f42,River Valley Healthcare Associates,28 Town Center Dr,Dublin,621111,37.092706,-80.686989,24084
22k-223@63f-ybp-mrk,sg:39ec371294c64ffb87287464f7a2ad47,Real Life Dental,250 S Main St Ste 212,Blacksburg,621210,37.227911999999996,-80.412953,24060
22r-22c@63r-ss3-snq,sg:a47c0cac4a5f4ee2a7d719b7c0843064,Reena Patel PAC,224D Cornwall St NW,Leesburg,621111,39.119409000000005,-77.56900999999999,20176
22d-222@63r-syc-r8v,sg:408bdc89a0634065a9aab968c9283044,N Naureen Rana MD Neurology Care Center,19455 Deerfield Ave Ste 310,Lansdowne,621111,39.077581,-77.477078,20176
222-222@63f-s2w-7yv,sg:8b55c351d20441629a6618ba9a419960,Cedar Cove Market,4541 State Park Rd,Dublin,445120,37.067305,-80.626892,24084
225-222@63f-yc3-m8v,sg:007b0b2c7f994ccbb047b038c2168694,University Physical Therapy,825 Davis St Ste B,Merrimac,621340,37.187535,-80.414814,24060
222-222@63r-syf-5s5,sg:83d21e88f252408f8abb39e3bde94994,Harper Park Middle,701 Potomac Station Dr NE,Leesburg,611110,39.094583,-77.522707,20176
zzy-224@63r-syd-jgk,sg:0a9a3e72b00145d0ac1b327d2638117f,Travinia Italian Kitchen,Village At Leesburg 1605 Village Market Blvd S.E.,Leesburg,722511,39.090185,-77.524603,20176
222-22g@63f-s3r-5mk,sg:af6a5559386f43b6aba35eade06fcb46,Andrea R Cobb M D,2875 Barn Rd,Christiansburg,621111,37.091798,-80.50575400000001,24073
222-226@63r-syc-nyv,sg:236a572bfcec461da849a0779b5c1b1c,LCI Dentistry,19415 Deerfield Ave,Lansdowne,621210,39.079345,-77.477319,20176
zzz-222@63f-yrw-rkz,sg:adfa11d820fd406085533c833645f3b4,Deerfield Bike Trail,1200 Deerfield Dr,Blacksburg,712190,37.262615000000004,-80.437325,24060
zzw-222@63f-rvr-st9,sg:19df15b87615413aa4dfd4accbda3108,Rice Dentistry,601 Roanoke St,Christiansburg,621210,37.130328999999996,-80.395099,24073
227-222@63r-ss2-975,sg:7ab8df3937ad4ecd9231688a50390920,Manhattan Pizza,647 Potomac Station Dr NE,Leesburg,722511,39.09868,-77.52597800000001,20176
222-222@63f-ybv-66k,sg:4261c3dff193435393c2ad5ee76bc415,Outback Steakhouse,295 Peppers Fry Rd NE,Christiansburg,722511,37.164826,-80.418603,24073
222-227@63r-syc-nyv,sg:d7a0e890a0d24bfdac2933719370fe12,Adler Oscar MD Loudoun Medical Group,19415 Deerfield Ave,Lansdowne,621111,39.079390000000004,-77.477527,20176
224-222@63f-wgh-9j9,sg:3d50d696718f4f9a9216801872fcc147,Avellinos,1440 S Main St Ste 110,Blacksburg,722511,37.21425,-80.40188,24060
zzz-222@63f-yc3-3h5,sg:6ef2c4af89bd41cfbbf61569f8e14907,Interchange Park,Interchange Park,Blacksburg,712190,37.193345,-80.405487,24060
222-222@63r-syb-zxq,sg:8c81621aabc9444d8871c99f1de3824d,Inova,19500 Sandridge Way Ste 200,Lansdowne,621111,39.076122,-77.480347,20176
zzw-222@63f-yj3-9mk,sg:d5015ec6727c4bb7858487cba8cbdd32,Dublin Middle,650 Giles Ave,Dublin,611110,37.111528,-80.688553,24084
225-222@63f-yc3-qfz,sg:628a9eea5f0b4c9baeba66a94d435c61,Richard L Anthony DDS Family & Cosmetic Dentistry,200 Professional Park Dr SE Ste 7,Blacksburg,621210,37.195878,-80.40080400000001,24060
224-224@63f-wgh-g8v,sg:e82b3dea34a94a759431b420c6b82b9d,CORA Physical Therapy Blacksburg,1995 S Main St Ste 801,Blacksburg,621340,37.206028,-80.398339,24060
223-222@63f-ybp-mc5,sg:dd8aa1be3bf64fc6bb7a272168ef5001,The Blacksburg Tavern,103 S Main St,Blacksburg,722511,37.229214,-80.413514,24060
22k-222@63f-wgh-g8v,sg:499f15e105c3460ca37ff190165e7403,Montgomery Radiology Associates,2001 S Main St,Blacksburg,621111,37.205269,-80.398389,24060
227-222@63f-yb6-f75,sg:90351a1f0bd24480b8e6cfe7e242b79b,Moe's Pizza,501 E Main St,Radford,722511,37.135799,-80.54280899999999,24141
222-223@63r-syc-qzz,sg:a283b2b3f5fd4596b04dde67080e6c28,Inova,44035 Riverside Pkwy # 500C,Lansdowne,621111,39.075237,-77.47840500000001,20176
zzw-224@63f-ybf-2hq,sg:1b38641059ab44d5b057cf2eb0a5904f,Carilion Clinic Family Medicine Blacksburg,901 Plantation Rd,Blacksburg,621111,37.224849,-80.444384,24060
223-222@63r-srz-sbk,sg:fa575d8db7c246899999b5605bb581fb,Center For Spinal Surgery & Spinal Disorders,19 Fort Evans Rd NE,Leesburg,621111,39.107178999999995,-77.546813,20176
228-222@63r-sry-dsq,sg:05c21280288e4db29a96430cec17910b,La Villa Roma Restaurant & Pizzeria,305 E Market St Ste G,Leesburg,722511,39.112203,-77.560027,20176
zzw-222@63f-ybf-2tv,sg:2f0215a5e2aa46b287a7b5e046327188,University Physical Therapy West Blacksburg,920 Plantation Rd Ste 100,Blacksburg,621340,37.225434,-80.443613,24060
22m-222@63r-sy9-mrk,sg:6502cd5d098d4feaabcdbe347a870ece,Great China,19265 Citrine Dr,Lansdowne,722511,39.082778999999995,-77.495267,20176
zzz-222@63f-ybg-9fz,sg:eb2f8386905240439e8b9c088e352fde,Lark Lane Park,1504 Lark Ln,Blacksburg,712190,37.233178,-80.443053,24060
222-222@63r-sy9-zxq,sg:077c8d7e357d421eadc5735bf71af057,Piedmont's Table,44050 Woodridge Pkwy,Lansdowne,722511,39.084818,-77.47649100000001,20176
zzw-22t@63f-s3r-2tv,sg:41a2f876c0324b8794bfa093536b64a1,Patrick E Ketchersid PA,2900 Lamb Cir Ste L 760,Christiansburg,621111,37.088943,-80.505189,24073
223-222@63r-sy9-mff,sg:683319626028465784e89ad9defd8d91,MinuteClinic,19305 Ruby Dr,Lansdowne,621111,39.081863,-77.49665999999999,20176
zzw-222@63r-stc-mhq,sg:19036b8ab41d4fe08dfa4b44ea8ded69,Lucketts Elem,14550 James Monroe Hwy,Leesburg,611110,39.213394,-77.53415600000001,20176
zzw-222@63f-rw3-33q,sg:33e3eff0f8e64de3a7ae6c74f1f8a524,Summit Restaurant,95 College St,Christiansburg,722511,37.130210999999996,-80.41179,24073
222-222@63f-wgj-9cq,sg:a1c2a4a4252544289271c116f7e9f4b2,Lefty's Main Street Grille,1410 S Main St,Blacksburg,722511,37.215215,-80.401033,24060
zzw-238@63f-s3r-2tv,sg:8de43dbf5f0c4066b33859690f18d2b2,Michael D Goodrich M D,2900 Lamb Cir Ste 340,Christiansburg,621111,37.08886,-80.50518199999999,24073
22b-222@63f-ybn-835,sg:196ad1aa8090465785b2a2987030a3fe,Gaucho Brazilian Grille,880 University City Blvd Ste 201,Blacksburg,722511,37.23557,-80.433275,24060
zzy-222@63r-syc-qzz,sg:e7a69b9fb55b4b76ba35ee1e10ccd166,Tariq A Aziz MD FACC,44035 Riverside Pkwy Ste 400,Lansdowne,621111,39.075169,-77.478401,20176
222-222@63f-yj4-7h5,sg:fec72c67bf70463f98b0dc83924ef3d6,Patty's Kitchen,793 Broad St,Dublin,722511,37.111049,-80.67766999999999,24084
224-222@63f-rvv-rx5,sg:fc0801ff939d452fab59958d31739750,El Bronco Mexican Bar & Grill,6 Radford St,Christiansburg,722511,37.126419,-80.413477,24073
222-222@63r-sry-2hq,sg:6515f58e2f04442aa03bbad6eaf2ac2c,Kobe Japanese Steak & Seafood House,514 E Market St,Leesburg,722511,39.110355,-77.551142,20176
224-223@63f-wgh-g8v,sg:14962bfb95be42a39d6d285933b7fff5,Blacksburg Physical Therapy Associates,1995 S Main St Ste 801,Blacksburg,621340,37.205901000000004,-80.398386,24060
222-222@63f-ybq-d7q,sg:d94ddcca265e44e8b48338b20a16438e,Harding Avenue Elem,429 Harding Ave,Blacksburg,611110,37.234364,-80.411148,24060
zzy-222@63f-yry-b8v,sg:dc6935951f8041f5a38bf4f192d2ad2d,Misty Basham Leedy PA,1420 N Main St,Blacksburg,621111,37.24831,-80.413102,24060
zzy-222@63r-syc-nyv,sg:1fa4ba7d44074e0a9e6355b0816e0518,Roberta Moreland MD,19415 Deerfield Ave Ste 314,Lansdowne,621111,39.079401000000004,-77.4775,20176
223-222@63f-s4s-k75,sg:e9fbcea38a004804be9363be23a068dc,Bucko's Pantry,1700 W Main St,Radford,445110,37.119265000000006,-80.589864,24141
222-222@63f-yb6-n89,sg:a8e4ab68149849a0b0e9397ec6b870f0,Marie's Restaurant,1501 Tyler Ave,Radford,722511,37.126575,-80.538546,24141
225-222@63r-ss2-cdv,sg:c53c547ae2c548a08b7172a0dae44fb0,Pho Royal II,542 Fort Evans Rd,Leesburg,722511,39.105916,-77.527013,20176
222-224@63f-ybt-z2k,sg:d1fa7b3ac59f4f5dbbb4c3aed2099991,7-Eleven,3250 N Franklin St,Christiansburg,445120,37.17435,-80.420202,24073
22b-223@63f-yb5-249,sg:0b382fb9c2944e7f970ce3df5b2a6ddb,Nagoya Sushi,1158 E Main St,Radford,722511,37.141108,-80.558103,24141
zzw-222@63r-sy9-6p9,sg:771fa64efe07408cb164dc4c3b4a7db1,Belmont Ridge Middle,19045 Upper Belmont Pl,Lansdowne,611110,39.08996,-77.49048,20176
222-222@63r-ss3-snq,sg:0edccfb919c74e8faebd5d16d2dbf145,Inova,224A Cornwall St NW,Leesburg,621111,39.119827,-77.568826,20176
22j-222@63r-sy9-mrk,sg:99d018261f2947ffb88367f81672c74b,Fusion Academy,19300 Promenade Dr Ste 200,Lansdowne,611110,39.082601000000004,-77.495655,20176
222-224@63r-syc-pn5,sg:f6c6d790426e42ae99d842d47dfd3a9b,Debora Feeney FNP BC,19450 Deerfield Ave,Lansdowne,621111,39.076964000000004,-77.475138,20176
222-226@63f-s3r-5mk,sg:5ec39fadef484fac90c3f6ad6331be98,Buchwald Laurie Rnc Whnp,2875 Barn Rd,Christiansburg,621111,37.091903,-80.505721,24073
23k-222@63f-ybp-kxq,sg:5d4840011671474d933cd7d3fb7f7521,Blacksburg No 1,125 N Main St Ste 400,Blacksburg,722511,37.229693,-80.414643,24060
223-222@63r-syc-qzz,sg:5e1fc4c1db9542e6a47b9817394686f5,Rajat Garg MD FACC FSCAI Virginia Heart,44035 Riverside Pkwy Ste 400,Lansdowne,621111,39.075159,-77.478437,20176
222-223@63f-yb5-py9,sg:839f3fc35b6047cd90f38845511d57fc,Wfl of Va,1200 Tyler Ave,Radford,722511,37.128189,-80.54694599999999,24141
224-222@63r-syc-qzz,sg:328fa3dcf4914564855e67b2b218a0f0,Amy J Irwin,44035 Riverside Pkwy Ste 300,Lansdowne,621111,39.075187,-77.478404,20176
223-222@63r-sy9-8vz,sg:518ecccae67f40b087a4666701bf6f88,Loudoun Community Midwives,19465 Deerfield Ave Ste 205,Lansdowne,621111,39.078846999999996,-77.482638,20176
225-224@63f-s4s-t9z,sg:b55bdb23e66640238b054ebac58650d6,CORA Physical Therapy Radford,206 6th St,Radford,621340,37.130046,-80.570202,24141
zzw-224@63f-yc3-975,sg:f504b98942294002a3941ea4748f2355,Howell Tamara Obgyn,3698 S Main St,Blacksburg,621111,37.187704,-80.41107199999999,24060
zzy-22b@63f-s3r-2tv,sg:3811e806ad5a469aab97e25ac03572e5,Rhonda G Johnson NP,2900 Lamb Cir Carilion Clinic,Christiansburg,621111,37.089267,-80.50565,24073
22h-222@63r-srr-p7q,sg:da71b6e0eec54428ac662318bd99ee44,Red Kabob,521 E Market St Ste A,Leesburg,722511,39.108422,-77.553122,20176
22c-222@63r-syc-qj9,sg:15b39a1808c84ac5ac6843a18f4dac36,Little Pearls Dentistry for Children,19465 Deerfield Ave Ste 302,Lansdowne,621210,39.078214,-77.478487,20176
22r-227@63r-ss3-snq,sg:2ea393b592204db694716ce6bd0dd34f,Optimum Physical Therapy & Sports Medicine Leesburg,224D Cornwall St NW,Leesburg,621340,39.119954,-77.568741,20176
zzy-222@63r-syc-h3q,sg:d774547be82445adbed1d7b44bcc191c,Korean BBQ,Scientific Way,Lansdowne,722511,39.070701,-77.461877,20176
zzz-222@63f-wgv-v75,sg:b3a918b802f5471bb83b57031d9f2737,John Lemley Park,John Lemley Park,Christiansburg,712190,37.136486,-80.329546,24073
zzz-222@63r-sry-gx5,sg:b8735849e99d4243a275e60933bff5f0,Rotary Park,22 North St NE Leesburg Va 20175,Leesburg,712190,39.117276000000004,-77.56217099999999,20176
zzw-222@63f-rt3-bzf,sg:b175474fea324e86bb299a5f9ce97db9,Aly's Family Italian Restaurant,3204 Riner Rd,Christiansburg,722511,37.088453,-80.450866,24073
22b-222@63r-syc-qj9,sg:ce0c89d1a3f5456f986a808e09c816d1,Pediatric Lung Center,19465 Deerfield Ave Ste 410,Lansdowne,621111,39.078205,-77.478466,20176
zzy-223@63f-yj3-gkz,sg:d6476ea4440d458fadeb6275ca8c9567,New River Valley Pediatrics,419 E Main St,Dublin,621111,37.105729,-80.683986,24084
zzw-22k@63f-s3r-2tv,sg:427a8540011e4ad7846df1f03f069f1b,Carilion New River Valley Medical Center,2900 Lamb Cir,Christiansburg,622110,37.089172,-80.50565300000001,24073
zzz-222@63f-s4s-5fz,sg:8be214f7b9194221ac9408eec8b9a535,Howard M Sisson Park,Pendleton St,Radford,712190,37.11776,-80.575324,24141
222-222@63f-yc2-c5z,sg:b62c1daadf834482abc81c2642aab4c6,Kem's Restaurant & Lounge,99 Bradley Dr,Christiansburg,722511,37.162211,-80.427362,24073
22b-222@63r-syc-r8v,sg:972938f0a24a42faba6d55f9f884da04,National Sports Medicine Institute,19455 Deerfield Ave Ste 306,Lansdowne,621111,39.077573,-77.47706099999999,20176
222-224@63r-syb-zvf,sg:c2d7fd8e26464330b85f6e547ee6b5f1,Sharon Corriveau FNP BC,19500 Sandridge Way,Lansdowne,621111,39.076229999999995,-77.480337,20176
zzw-222@63f-yj5-8jv,sg:d665953a2c5e4e2d90aacc35665fcdd3,Dublin Elem,600 Dunlap Rd,Dublin,611110,37.101786,-80.678579,24084
zzw-23c@63f-s3r-2tv,sg:32483c43aa1c4ec5910705868457ae6b,Carilion Clinic Endocrinology New River Valley,2900 Lamb Cir Ste 230 Bldg A,Christiansburg,621111,37.08928,-80.50564399999999,24073
222-223@63f-ybq-grk,sg:7d5d49a3f0c747ff81961f20d4efe7f0,Streamline Blacksburg Office,614 S Main St,Blacksburg,621210,37.224861,-80.409461,24060
zzw-222@63r-srr-nwk,sg:bc143418516c4ee8af0ea3476259fd0f,Hudler Annette M DO,51 Catoctin Cir NE,Leesburg,621111,39.112035999999996,-77.553933,20176
zzz-222@63f-wgj-4vz,sg:04460c2123704ba797aa78d69efccad9,NellieS Cave Park And Arboretum,1900 Grissom Ln,Blacksburg,712190,37.209746,-80.39206899999999,24060
222-222@63f-ybm-s89,sg:0d7c9dce422e4806a1a3ef3002b0ac85,Blacksburg Middle,3109 Prices Fork Rd,Blacksburg,611110,37.214813,-80.461394,24060
222-222@63f-yj3-gkz,sg:af564afa72b444298568270f963aa213,Mogen,401 E Main St,Dublin,621111,37.105665,-80.684046,24084
224-222@63f-rvv-qxq,sg:ea1cdda30a974c3790065357a4c30008,Turner R L Dr,301 Radford St,Christiansburg,621210,37.128175,-80.41747,24073
22b-224@63r-syc-nyv,sg:7a3351cdfb9d48f9ad7864179ca194e6,The Urology Group,19415 Deerfield Ave Ste 112,Lansdowne,621111,39.079418,-77.477538,20176
222-222@63f-tx7-st9,sg:6d4a38cfbaa04b5d85dcd7830ad1e9b7,Blue Ridge Dental Group New River Valley,4664 Lee Hwy,Dublin,621210,37.099028000000004,-80.72014,24084
222-222@63f-yc3-gkz,sg:c7a76fa349e0402ca744ee32a78dbbd4,Carilion Clinic Family Medicine Warm Hearth Village,981 Litton Ln,Merrimac,621111,37.197168,-80.422162,24060
zzw-222@63f-ybx-4d9,sg:42146e017df54c73ae2b4e912f0537c9,University Physical Therapy,115 Akers Farm Rd Ste 1,Christiansburg,621340,37.148001,-80.41372,24073
zzy-224@63r-syc-qzz,sg:46d4efd28f7b4db5a392e51593a25a95,Amit Sarma,44035 Riverside Pkwy Ste 300,Lansdowne,621111,39.075148,-77.478433,20176
223-222@63r-ss2-jn5,sg:52e2b9f2dc9b43deb15bc92dabe6a91b,Leesburg Public House,962 Edwards Ferry Rd NE,Leesburg,722511,39.115258000000004,-77.539478,20176
zzw-222@63r-syc-qj9,sg:0769230ae9ec4be4897182146c59c539,Kimberly Phomsopha PTA,19465 Deerfield Ave,Lansdowne,621340,39.078203,-77.478507,20176
22c-223@63f-yc2-7dv,sg:3f66d7c129a04c209ed493d5bdae1355,MedExpress Urgent Care,100 Spradlin Farm Dr,Christiansburg,621493,37.160215,-80.42304200000001,24073
222-223@63f-y9z-5mk,sg:a3104505670045dca0b9bac141300626,The River Company Restaurant and Brewery,6633 Viscoe Rd,Fairlawn,722511,37.146065,-80.544923,24141
zzy-222@63f-ybf-2hq,sg:736e79e27bfb4e4892e199d1dc7bd72a,Lori A Foster NP,901 Plantation Rd,Blacksburg,621111,37.224868,-80.444396,24060
224-222@63r-ss2-92k,sg:1144879c347148d9ab137326b92097e2,Leesburg Family & Cosmetic Dentistry,661 Potomac Station Dr NE,Leesburg,621210,39.098523,-77.525749,20176
zzw-222@63f-yb4-grk,sg:71a53496d1d8410da6c48790845006f7,Rocas Mexican Grill,7523 Lee Hwy,Fairlawn,722511,37.141353,-80.57735500000001,24141
22b-222@63f-y9z-pqf,sg:be00c3a168924361a6665a54a0834b68,University Physical Therapy,600 E Main St Ste A,Radford,621340,37.137687,-80.544623,24141
zzw-222@63f-wgy-wff,sg:55bb56e1f85841dca435ec57c209b4e9,Fatback Soul Shack,2440 Roanoke St,Christiansburg,722511,37.137493,-80.358967,24073
225-222@63f-s4s-ygk,sg:ee976bc840224aa2b4f19e58fc3ba1b6,Mcharg Elem,700 12th St,Radford,611110,37.121089000000005,-80.571545,24141
222-224@63f-tx6-249,sg:63531d677b9c40b3a37e27afba3250a4,Bechtel Janet E Dr DPM,5270 Alexander Rd,Dublin,621111,37.084581,-80.692035,24084
222-222@63f-s4s-v75,sg:ca4b1249f07e48458dd707b428ee01b1,Brick House Pizza,311 W Main St,Radford,722511,37.13402,-80.57571800000001,24141
223-222@63f-tx6-52k,sg:53fefdff9ad84045849b0c56aef0a0ab,Happy Cinco De Mayo,4426 Cleburne Blvd,Dublin,722511,37.075705,-80.690119,24084
zzw-223@63r-syc-r49,sg:8b9fc002f4604a8485644c13af5411c2,Loudoun Pediatrics Associates,19450 Deerfield Ave Ste 200,Lansdowne,621111,39.077116,-77.475358,20176
zzw-223@63f-yc2-f9f,sg:b428b24a942343ae84f9b7282119dc62,Food Lion,1530 N Franklin St,Christiansburg,445110,37.150128,-80.41707,24073
zzw-22g@63f-s3r-2tv,sg:d0e677fbbe54427ab3a8b6dce509e1bf,Carilion Clinic Psychiatry & Behavioral Medicine NRV,2900 Lamb Cir,Christiansburg,621111,37.088856,-80.505117,24073
222-226@63f-s3r-2tv,sg:b4efe7459fbd4be8be2d732a33769146,DeEtta R Ray DNP,2900 Lamb Cir Ste 301,Christiansburg,621111,37.089286,-80.505656,24073
223-222@63f-y7q-xkf,sg:4d771f10fe814046a5c1b87566f8c4d7,Super Val U Grocery,109 Blue Grass Trl,Newport,445110,37.290232,-80.498463,24128
zzw-227@63r-syc-qj9,sg:c0e768cd0fcb4c9787ffa05a6f3402b4,Senner Paula C N M,19465 Deerfield Ave,Lansdowne,621111,39.078224,-77.47846899999999,20176
222-223@63f-ybt-zmk,sg:07f1a6772de94c658447071316f5615d,Zelen Charles DPM Podiatrist,2955 Market St,Christiansburg,621111,37.169883,-80.419626,24073
22b-223@63f-yc3-92k,sg:158f5911b9564a24ae8a04be65b397d3,Turk Phyllis A Gyn,3698 S Main St,Blacksburg,621111,37.187222,-80.408363,24060
224-223@63r-srr-pd9,sg:947f713670f84031b6e0a3ee28831cb0,Smile Please,546 E Market St,Leesburg,621210,39.109195,-77.55042399999999,20176
224-222@63r-sy9-8y9,sg:38c48f9e026b4facb107847b8e409a24,Lansdowne Dental Arts,19440 Golf Vista Plz Ste 250,Lansdowne,621210,39.078257,-77.482377,20176
zzy-222@63f-wyw-ffz,sg:11b7d72eb5f148f58b562bbe98cc81f8,Dragon's Tooth,Catawba Valley Dr,Catawba,712190,37.360787,-80.17347,24070
223-222@63f-ybq-hwk,sg:238ceceff5bf422eaa387510a6427711,Turner R L Dr,800 S Main St,Blacksburg,621210,37.223674,-80.408175,24060
zzw-222@63f-yc2-kfz,sg:7e5676980b9b49c1b562119c211f0cb2,Taqueria el Paso,510 Peppers Fry Rd NW,Christiansburg,722511,37.162264,-80.434061,24073
226-223@63f-ybp-mx5,sg:b88a4955712e463e845c67d8ea6d2403,Jay M Bass DDS NRV Family Dentistry,200 Washington St SE,Blacksburg,621210,37.228506,-80.411365,24060
22r-22d@63r-ss3-snq,sg:f05e558d9813496b84376475bb570c8e,Jennifer Wagenbach DPT,224D Cornwall St NW,Leesburg,621340,39.119391,-77.569011,20176
225-222@63r-syc-nyv,sg:121cd882740140179f1749150bd4dfd8,Pediatrics and Newborn Care,19415 Deerfield Ave Ste 303,Lansdowne,621111,39.079384000000005,-77.477538,20176
zzy-222@63f-ybm-qzz,sg:f22fbcfa65e54b0f998506ea327a6d39,Tyler Burningham DMD Hethwood Dental,907 Hethwood Blvd Hethwood Dental of Blacksburg,Blacksburg,621210,37.217095,-80.454899,24060
222-22c@63r-syc-nyv,sg:318231f4dd0f496a8aa98508c9f72411,Chuck Pruna DO,19415 Deerfield Ave,Lansdowne,621111,39.079374,-77.477532,20176
222-222@63f-yb4-yqf,sg:0d46a09e407f4a81a3dd815cdadbdc0f,Riverlawn Elem,8100 Beth Nelson Dr,Fairlawn,611110,37.151989,-80.56415799999999,24141
22d-222@63r-ss3-qs5,sg:308a90d5ae1b4f5797a4836e89e4401d,19 West Gourmet Burgers,19 W Market St,Leesburg,722511,39.115621000000004,-77.565637,20176
zzw-222@63f-tx5-xh5,sg:96f734daaa8e4dbaab78ba4026007705,El Ranchero,5239 Alexander Rd,Dublin,722511,37.082178000000006,-80.69430899999999,24084
22k-223@63r-sry-d7q,sg:89ba5c8fb966323b98414739aa169f80,Rebellion Leesburg,1 N King St,Leesburg,722511,39.115581,-77.56469,20176
223-223@63r-ss3-snq,sg:51a15e89594747469b52668511dd8fea,Inova,224 Cornwall St NW,Leesburg,621111,39.119768,-77.568894,20176
zzw-226@63f-ybf-2c5,sg:87476d52fc8645128843473f38d3df39,Shelley T Butler NP,901 Plantation Rd,Blacksburg,621111,37.224841,-80.44434100000001,24060
zzw-222@63f-s3k-t7q,sg:d4624afd701b4fe091e4f80244b1221d,Snowville Elem,4858 Lead Mine Rd,Snowville,611110,37.023168,-80.59319,24347
zzw-225@63r-syb-zxq,sg:0ce9fae197b144fcb971368c67eda57a,Lisa Cook PA C,19500 Sandridge Way,Lansdowne,621111,39.076125,-77.48037,20176
222-223@63f-rw3-zxq,sg:13d4f6d024f4476cb25d4477f2ab945e,Carilion Clinic Cardiology Christiansburg,1201 Elm St,Christiansburg,621111,37.14454,-80.414668,24073
zzw-22m@63f-s3r-2tv,sg:c670109afd234a0cb42ba422dd98f768,Carilion Clinic General Surgery Christiansburg,2900 Lamb Cir Ste 302,Christiansburg,621111,37.088859,-80.505134,24073
zzw-225@63r-syc-qj9,sg:cf2a5d355bb54e3696614a89896a6bfb,Dotson Wendy Cnm,19465 Deerfield Ave,Lansdowne,621111,39.07822,-77.478489,20176
zzw-222@63r-syc-sbk,sg:93f9e6e4ce5b47a48698b32763a8d1f0,Lansdowne Family & Cosmetic Dentistry Paul Ellington DDS,44115 Woodridge Pkwy Ste 280,Lansdowne,621210,39.077777000000005,-77.472358,20176
222-224@63r-stk-2c5,sg:00c9aeeb99cd4594a815099b6c092e25,UHS (Universal Health Services Inc),42009 Victory Ln,Leesburg,621111,39.145788,-77.546686,20176
225-222@63f-s4t-4d9,sg:38fe84f3d67c4e58b61444ebcf9aa0f7,Pazar Radford,703 W Main St,Radford,722511,37.130989,-80.581379,24141
222-226@63f-ybf-w6k,sg:94e4e15a6959447a93098e4aa31cd06a,El Mariachi Mexican Restaurant,801 University City Blvd,Blacksburg,722511,37.233655,-80.434267,24060
zzy-222@63f-tx6-249,sg:034a4f0dbe9641979e5cf0c7a8a86db9,Heather B Pearman DPM,5270 Alexander Rd,Dublin,621111,37.084544,-80.692052,24084
222-222@63f-ybq-nbk,sg:98cdc943c01a449fa70cd9b7a4cc876d,PK's Bar & Grill,432 N Main St,Blacksburg,722511,37.232193,-80.416189,24060
22g-222@63r-syc-r8v,sg:b6e71a5a37da4ec88de75fca5289199e,Virginia Head and Neck Surgeons PC,19455 Deerfield Ave Ste 301,Lansdowne,621111,39.077579,-77.477092,20176
zzz-222@63f-yb4-nnq,sg:1b2047fab8854e3aa2668eb36ecfba53,Bisset Park,Berkley Williams Dr,Radford,712190,37.137252000000004,-80.57473,24141
223-225@63f-s3r-2tv,sg:c048316fa2b948e1b5dfdeb38c57f6aa,Kimberly P Simcox DO,2900 Lamb Cir Ste 202,Christiansburg,621111,37.089278,-80.505641,24073
zzw-223@63f-ybf-2hq,sg:de3b19e9e5f749fa841e9cfb09146ee7,Charlene R Viers NP,901 Plantation Rd,Blacksburg,621111,37.224837,-80.444375,24060
222-223@63r-syb-zvf,sg:24dd7155c30f45729abfa276b59b7183,Lauren Bland FNP BC,19500 Sandridge Way,Lansdowne,621111,39.076219,-77.480362,20176
223-222@63f-ybt-zmk,sg:864337c76ae84032b40d529b4d17a5c1,Blue Ridge Pain & Spine Associates,95 Ponderosa Dr,Christiansburg,621111,37.170629999999996,-80.419493,24073
222-222@63r-syb-pd9,sg:ea98d26d819b4918b2dc93d78d4f36ab,Inova,44055 Riverside Pkwy Ste 150,Lansdowne,621111,39.073719,-77.474711,20176
zzw-233@63f-s3r-2tv,sg:f7d4b55ae5de4e5c85f84d6340033045,Margaret C Turley LCSW,2900 Lamb Cir,Christiansburg,621111,37.089253,-80.505648,24073
225-222@63r-ss2-45f,sg:0963c90d42df4a40ad144013d1d8e9d7,Loudoun Pediatric Dentistry,540 Fort Evans Rd Ste 110,Leesburg,621210,39.10641,-77.526777,20176
225-222@63r-srz-sbk,sg:a53a476ebecc45fb81bc4b2f965eb50b,Walker Jan DDS,17 Fort Evans Rd NE,Leesburg,621210,39.107362,-77.546972,20176
224-223@63f-s4s-t9z,sg:a47aa1225932474faeb10f7e69bbea2e,Argabrite Joseph Pt,601 Harvey St,Radford,621340,37.129740999999996,-80.57064,24141
zzw-222@63r-srr-nt9,sg:732b4a605e5d4940a20999e3e07e23cb,Taste Of Lebanon Mediterranean Grill,510 E Market St Unit F,Leesburg,722511,39.110566,-77.551455,20176
22h-222@63r-ss3-snq,sg:d0bd1a00016e468993f042c772d0b3cd,Urology Group,224D Cornwall St NW Ste 400,Leesburg,621111,39.119956,-77.56874300000001,20176
zzz-222@63f-ybp-5xq,sg:78780d6902c44f8282382ec1f033087e,Brookfield Village,1225 Brook Cir,Blacksburg,712190,37.248265,-80.432231,24060
222-222@63f-ybm-q2k,sg:6b42b0adb56d4674bf95374a57e43e74,Blacksburg High,3401 Bruin Ln,Blacksburg,611110,37.211075,-80.459025,24060
zzy-224@63r-syc-2hq,sg:c346a24880ce43c9a355ec5c22181aa8,Kambiz Tajkarimi MD Urology Surgical Consulting,44055 Riverside Pkwy Ste 208,Lansdowne,621111,39.074007,-77.477864,20176
222-222@63f-y8w-94v,sg:e03dcaf08f4542ca848f0b9232f882cf,Christie's,3410 Peppers Ferry Rd,Belview,445120,37.172006,-80.516293,24141
222-223@63f-wgz-89z,sg:bcd54d0873ac419aae99c6d4542c9417,7-Eleven,2370 Roanoke St,Christiansburg,445120,37.136913,-80.362158,24073
zzw-222@63r-sry-2ff,sg:913ac3c8abf44d22a00ccc19b0362f9c,The Loudoun Kitchen & Bar,510 E Market St Ste I,Leesburg,722511,39.110731,-77.551416,20176
zzy-222@63f-ysc-sdv,sg:50a6fb36fa8740ea9b79ab7d8edb4d65,Sinking Creek Covered Bridge,Clover Hollow Rd Rt 601,Newport,712120,37.306991,-80.49763100000001,24128
zzy-222@63r-syc-r8v,sg:197c0510c70f485caff5e11a99a44064,Jennifer Thompson FACOG,19455 Deerfield Ave Ste 204 Loudoun Obgyn P.C.,Lansdowne,621111,39.07757,-77.477092,20176
zzy-222@63f-wht-kxq,sg:572bad4bf2b8445fac4c8bf8be5a7876,Hale's Restaurant,7643 Roanoke Rd,Shawsville,722511,37.172827000000005,-80.240689,24162
222-223@63f-tx6-249,sg:e5e732c4835a4b53ac68ac46f0189c60,Southwest Podiatry,5270 Alexander Rd,Dublin,621111,37.084559000000006,-80.692024,24084
22j-223@63f-yb4-zs5,sg:10b384c4fdbc453bacd2c186daae4619,Kiser Orthodontics,1151 E Main St Ste C,Radford,621210,37.140723,-80.557957,24141
222-229@63r-syb-zzz,sg:a507aff98e2b4577b4acfbfa4bf97b5c,LMG Infusion Center,19490 Sandridge Way,Lansdowne,621111,39.076829,-77.481841,20176
zzw-222@63f-yry-75z,sg:bd9a6a6beec447628ab416360011363f,Food Lion,1413 N Main St,Blacksburg,445110,37.24811,-80.41504,24060
222-223@63f-yc3-g8v,sg:f67880591c1c3d98b69ca73758059963,Kroontje Health Care Center,1000 Litton Ln,Merrimac,621111,37.196090000000005,-80.423214,24060
zzw-22c@63r-syc-qj9,sg:e9a36555539a4994809bf7fc579f81cb,Sara Scott DPT,19465 Deerfield Ave,Lansdowne,621340,39.078226,-77.478462,20176
225-222@63r-sy9-mrk,sg:3cf66422587e453aa1d31344c8a80481,Mr Sushi & Mrs Roll,19302 Promenade Dr,Lansdowne,722511,39.082494,-77.49544499999999,20176
zzw-222@63f-yb6-rp9,sg:283ee8ae85df46a1b5d3c31d7caec68b,Belle Heth Elem,151 George St,Radford,611110,37.131953,-80.557358,24141
222-223@63f-ybp-m49,sg:d06f7f0b166b4c959cad068398a8c5f3,Top Of The Stairs,217 College Ave,Blacksburg,722511,37.229704999999996,-80.41634,24060
229-224@63r-ss2-45f,sg:5820642202c645518d5a260a70009d7b,Christina Cowell DMD,540 Fort Evans Rd Ste 100,Leesburg,621210,39.106544,-77.526783,20176
zzz-222@63f-ybq-dgk,sg:90cab49af3ad4c62bf69ffe65858e45b,Owens Street Park,316 Owens St,Blacksburg,712190,37.236086,-80.410947,24060
222-223@63r-t9h-pgk,sg:625a71edf2014e9aae8cf57972bfff4c,Getty Mart,13232 James Monroe Hwy,Leesburg,445110,39.24966,-77.529821,20176
224-222@63f-s4s-t9z,sg:d07c0f28168544b782d1749743e0d03a,Donnelly Kerry B Dr,601 Harvey St,Radford,621111,37.129816999999996,-80.570652,24141
zzw-222@63r-ss3-q4v,sg:50d01bc4b6a6456182c8cd7d35b62043,Carissa Dear FNP BC,211 Gibson St NW,Leesburg,621111,39.118989,-77.567741,20176
zzw-228@63r-syc-qj9,sg:5bead02287f141b186d636da15e5378d,Lansdowne Dental Care,19465 Deerfield Ave Ste 406,Lansdowne,621210,39.078202000000005,-77.478472,20176
zzw-225@63r-srz-sbk,sg:75b6b512deb74c2ca2ce5a19597e2ae3,Deidra Kokel DDS,17 Fort Evans Rd NE Ste C,Leesburg,621210,39.107364000000004,-77.547001,20176
22b-222@63f-ybp-m49,sg:fe56afbea29c49bdaf2b2539165e71d8,Green's Grill & Sushi Bar,109 College Ave,Blacksburg,722511,37.230298,-80.4155,24060
22b-222@63r-syc-pn5,sg:0aa3943cd0054612a148a050affedbe0,Maharaj Barry DDS,19450 Deerfield Ave Ste 205,Lansdowne,621210,39.076972,-77.475103,20176
22c-222@63r-syc-2hq,sg:7cc0f8bf550343daace4e4c6475cab8f,Inova,44055 Riverside Pkwy Ste 110,Lansdowne,621111,39.074104999999996,-77.47807,20176
224-222@63r-sy9-8jv,sg:2b7664c01fa447f7ab44c96acfe24e62,Narjes Abtahi DDS Your Community Smile,19420 Golf Vista Plz Ste 210,Lansdowne,621210,39.078282,-77.483449,20176
225-222@63r-ss2-gx5,sg:823cedf10a3e4f4f9047c86beea6a1c1,Kovi Asian Street Food Kitchen,1015 Edwards Ferry Rd NE,Leesburg,722511,39.112705,-77.53520300000001,20176
228-224@63f-ybt-ysq,sg:ad63de2b956d4776a7b83f9944edaab5,Camarena's Mexican Store,3135 N Franklin St,Christiansburg,452210,37.172515000000004,-80.41984599999999,24073
22n-222@63r-syc-nyv,sg:d727c67789344496a1ba51c97de0288a,Lansdowne Family Dental,19415 Deerfield Ave Ste 309,Lansdowne,621210,39.079388,-77.477523,20176
225-222@63f-s4t-6kz,sg:dde39608857a4e2f8ea9789d36634990,LewisGale Physicians,106 Wadsworth St,Radford,621111,37.131009999999996,-80.57826999999999,24141
zzy-223@63f-yc2-73q,sg:a081b7b546d0441d86ab1a8e797794b5,T.J. Maxx,160 Conston Ave. Spradlin Farms,Christiansburg,452210,37.159037,-80.424435,24073
222-224@63r-syc-qzz,sg:a52dc484b32a468ca74f1b4b8d3aa7b8,Safko Anne M MD Facc,44035 Riverside Pkwy,Lansdowne,621111,39.075162,-77.478402,20176
zzw-222@63f-yc3-975,sg:53030fdb267e41508f944833ae9be594,Goodnight William H Obgyn,3698 S Main St,Blacksburg,621111,37.187667,-80.411073,24060
22c-222@63r-syc-pgk,sg:6b0ed045f2734c2eb7e7c1dab905432c,Lansdowne Aesthetic Center,44084 Riverside Pkwy Ste 230,Lansdowne,621111,39.076370000000004,-77.473659,20176
222-223@63f-yc3-rrk,sg:bef3b409bf1840b693b3ff97bb9dbf2b,Gwendolyn W Spangler NP,2600 Research Center Dr Ste A,Blacksburg,621111,37.195454,-80.404368,24060
224-222@63f-yc3-5mk,sg:c6ec11e64d6d4a8fbe3779a3e566815e,Drysdale Eye Center,3645 S Main St Ste 101,Blacksburg,621111,37.185848,-80.407618,24060
223-222@63f-tx4-tvz,sg:d1a47af7bf0248b88941195367ae163e,Veronas Pizza,222 Cleburne Blvd,Dublin,722511,37.098658,-80.691029,24084
zzw-223@63f-rvz-ht9,sg:4e700d456565462db532db222cff6f0e,Falling Branch Elem,735 Falling Branch Rd,Christiansburg,611110,37.125919,-80.372221,24073
223-222@63r-sy9-8jv,sg:1217b57edc924a588ffb17cc5c5559e2,Anh Pham DDS,19441 Golf Vista Plz,Lansdowne,621210,39.078152,-77.48347700000001,20176
zzw-223@63f-yb6-dgk,sg:fb830ff76ed8423c9a9a71a388adc37f,Lin House,1200 Tyler Ave,Radford,722511,37.128948,-80.547246,24141
222-222@63r-sry-qxq,sg:2c19c73ffd474dcabad64332b416ed65,Kohl's,1040 Edwards Ferry Rd NE,Leesburg,452210,39.116116,-77.537161,20176
222-224@63f-ybq-p9z,sg:7a6fbe1ae27a44899657fef5b91cccc2,Spicity,210 Prices Fork Rd,Blacksburg,722511,37.234807,-80.42191,24060
224-222@63r-srr-nwk,sg:f6a93c95f8b849e6bea90c223ee3ac25,Gentle Family Dentistry,19 Catoctin Cir NE,Leesburg,621210,39.111284000000005,-77.554397,20176
22f-227@63r-sry-dgk,sg:416b8ea22fbb47d9b2f484f7f502a8e9,Integrative Functional Medicine Center,116Q Edwards Ferry Rd NE,Leesburg,621111,39.115625,-77.561099,20176
225-222@63f-ybv-b6k,sg:42ae2b551ebd49609b9985b29636a9d5,Smith Richard A DDS,120 Ponderosa Dr Ste B,Christiansburg,621210,37.169237,-80.41880400000001,24073
222-223@63f-yc3-nbk,sg:58fe0f50008248b692cdfc1affb8fdc9,Virginia Women's Health,826 Davis St,Blacksburg,621111,37.188167,-80.41399,24060
222-222@63r-syb-zvf,sg:eb23e0ec07ba4be780cc657bf45ffcbd,Loudoun Pediatric Associates Leesburg,19500 Sandridge Way,Lansdowne,621111,39.076213,-77.480337,20176
zzz-222@63f-s4r-yjv,sg:b4cf32276077411787a7059230868034,Sunset Park,Eighth & Preston Sts,Radford,712190,37.122037,-80.57775500000001,24141
zzz-222@63r-srx-sdv,sg:31cf6a7751c54e5284765b4e7e54d15f,Robinson Park,345 Plaza St NE Leesburg Va 20176,Leesburg,712190,39.122421,-77.54975400000001,20176
zzw-22x@63f-s3r-2tv,sg:ffbf94d37cbb4f4cb7d1776d7cb6784a,Carilion Clinic Interventional Radiology Christiansburg,2900 Lamb Cir,Christiansburg,621111,37.089284,-80.505615,24073
229-223@63r-ss2-45f,sg:3180dff84e164ed1bce01bc2071832e1,Sandra Varney DMD,540 Fort Evans Rd Ste 100,Leesburg,621210,39.106551,-77.526782,20176
222-223@63f-yc3-ffz,sg:09640b357b5b454c8cf2ef24949387fc,Huckleberry Cafe,2387 Warm Hearth Dr,Merrimac,722511,37.197261,-80.419616,24060
223-222@63r-syc-pn5,sg:fae9aa52bcd44c65b2efcaae28bc7612,Afsheen Ather Nova Derm Institute,19450 Deerfield Ave Ste 325,Lansdowne,621111,39.076961,-77.475138,20176
22b-223@63r-ss2-45f,sg:37006cf179fe4af09226027262503001,Select Medical,540 Fort Evans Rd Ste 206,Leesburg,621111,39.106497999999995,-77.52693000000001,20176
22r-223@63r-ss3-snq,sg:65f5b15b006648c5b547a6120c63adf5,Nicole Price FNP BC,224D Cornwall St NW,Leesburg,621111,39.119398,-77.569038,20176
222-222@63f-ybp-m49,sg:c3fc3ef7193e4e22b48596944d11ddf4,Bottom of the Stairs,217 College Ave,Blacksburg,722511,37.229694,-80.41638,24060
222-223@63r-srz-q4v,sg:d628c9e6ad1f491699492a6b19e81fc0,7-Eleven,615 E Market St,Leesburg,445120,39.107151,-77.54985500000001,20176
226-222@63f-rvv-rx5,sg:e3552b833bd943d39246af166d951387,Crab Creek,9 Radford St NW,Christiansburg,722511,37.127108,-80.413443,24073
223-222@63r-syb-zvf,sg:31e56e33de414dcf99bef0e5849145a3,Aesthetica Cosmetic Surgery & Laser Center,19500 Sandridge Way Ste 350,Lansdowne,621111,39.076209000000006,-77.480373,20176
zzy-222@63r-syf-6zf,sg:39f8050e3c184930b145a3d5be671700,Silk,1500 E Market St,Leesburg,722511,39.093135,-77.5245,20176
zzw-222@63f-ybq-mx5,sg:7a0a80a6031b47e68d036f63db566288,Carilion Clinic Outpatient Therapy Blacksburg,213 Gilbert St,Blacksburg,621340,37.233522,-80.42097,24060
229-225@63r-ss2-45f,sg:d194ad4b52a346a1a2b98db18ad7890b,Loudoun Dental Smiles,540 Fort Evans Rd Ste 100,Leesburg,621210,39.106451,-77.52682800000001,20176
zzw-222@63f-yc3-n5z,sg:12fbd88eba564b50ba670adb6f41c865,Lewisgale Hospital Montgomery,3700 S Main St,Blacksburg,622110,37.187565,-80.41207800000001,24060
228-222@63f-yc3-92k,sg:523e0d93775f4130bd937240360eccc8,River Ridge Dermatology,3706 S Main St Ste B,Blacksburg,621111,37.187137,-80.40947299999999,24060
zzw-222@63f-yb4-mff,sg:2ad8eaf19aea4aae8facfaeda846d156,Fairlawn Family Dental,6051 Belspring Rd,Fairlawn,621210,37.148546,-80.58297900000001,24141
zzw-223@63f-yc3-975,sg:40fd06a608a24c55906c2f53298ba78b,Morrow Linda C Obgyn,3698 S Main St,Blacksburg,621111,37.187675,-80.411102,24060
222-222@63f-whz-ysq,sg:0137403025554c6c8c16bc007a2b618c,Eastern Montgomery High,4695 Crozier Rd,Elliston,611110,37.204389,-80.230787,24087
zzw-222@63f-ybn-8gk,sg:67f1b48e02e94976b46feb2fbcc614cd,The Beast of Blacksburg Pizzeria,860 University City Blvd,Blacksburg,722511,37.235293,-80.432742,24060
224-223@63f-y9z-cbk,sg:e3a99946ca68419f855e6506a6683186,La Cabana Mex Grill,310 E Main St,Radford,722511,37.135752000000004,-80.541292,24141
zzz-222@63r-stn-9zz,sg:50329eca5ba14654b93c2d1d001b0720,Balls Bluff Battlefield Regional Park,Balls Bluff Rd Leesburg Va 20176,Leesburg,712190,39.132721000000004,-77.527236,20176
224-222@63r-srz-rc5,sg:78471ec6c9a8495184f3bbdcfbc18d94,Wei's Garden,161 Fort Evans Rd NE Ste 110,Leesburg,722511,39.10857,-77.54141899999999,20176
zzz-222@63f-ybq-ht9,sg:ce98654263a34bbfbed1d3418efcbb6c,Graves Park,101 Graves Ave,Blacksburg,712190,37.222363,-80.405715,24060
225-222@63f-s4v-p5f,sg:1ba346e5d5e04768b1e8e057166a11ad,R & R Market & Snackbar,1611 Wadsworth St,Radford,722511,37.119119,-80.564844,24141
zzy-222@63f-whq-7wk,sg:45ec305351bf47a78c94ba4035548d57,Eastern Montgomery Elem,4580 Eastern Montgomery Ln.,Elliston,611110,37.199212,-80.232886,24087
zzw-222@63f-s4t-4d9,sg:1a110c636ad0450eb7833ec644e4f3d4,Sal's Italian Restaurant & Pizza,709 W Main St,Radford,722511,37.130705999999996,-80.581905,24141
zzw-222@63f-wht-tvz,sg:c25af554082e4dcb93dc2bdd99ac3ea5,Shawsville Middle,4179 Oldtown Rd,Shawsville,611110,37.172552,-80.247947,24162
223-222@63f-yb6-mkz,sg:621273de68734e119fa62ee17f48593b,Thai This Express,1401 Tyler Ave,Radford,722511,37.128601,-80.541255,24141
22c-222@63f-ybp-m49,sg:2adfa9b6e22e40d29c5a97c55e6f9aa2,The Black Hen & Bar Blue,126 Jackson St NW,Blacksburg,722511,37.229828000000005,-80.415284,24060
226-222@63f-yry-6tv,sg:8168ec9a4b9f4ef09f275c07f0adb43b,Chinese Kitchen,1409 N Main St,Blacksburg,722511,37.247555,-80.415242,24060
222-222@63r-srd-ch5,sg:a6e98b63834b4336933f6fe81cb6db3c,Tuscarora High,801 N King St,Leesburg,611110,39.13275,-77.558565,20176
22b-222@63r-sy9-mrk,sg:f3ad3675891a4f00a782d6ec9cc41784,Ford's Fish Shack Lansdowne,19308 Promenade Dr,Lansdowne,722511,39.082281,-77.495307,20176
zzy-226@63f-tx4-xqz,sg:3e487b4897ae470b8d757c8f4e2ccf17,Christine Ullman DO,118 Broad St,Dublin,621111,37.103679,-80.688517,24084
zzy-222@63f-wh9-z4v,sg:cd74ead2e7c14e64b30265ddf60aa40a,Montgomery White Sulphur Springs Historical Marker,I 81,Elliston,712120,37.228424,-80.241956,24087
222-224@63f-rw4-4qf,sg:f86dd314df8d439f8cbd56a66da97c9a,Vishal B Gohil M D,110 Akers Farm Rd,Christiansburg,621111,37.147076,-80.41387900000001,24073
zzy-222@63r-syb-9xq,sg:0dafe9bf7c324612b59984248f75321e,Kephart Bridge Landing,43942 Riverpoint Dr,Lansdowne,712190,39.098479,-77.494284,20176
222-223@63f-yb4-dy9,sg:5c1fe2ffe6e34edf97ec5ef680405abb,MinuteClinic,31 W Main St,Radford,621111,37.137789,-80.569648,24141
zzy-223@63f-rw4-4qf,sg:61f238504c294b48ad26ecfdf5120bff,Michael A Riel DO,110 Akers Farm Rd,Christiansburg,621111,37.147046,-80.413842,24073
22h-222@63r-syc-r8v,sg:511862e879b04411bb379e91356c09d7,Loudoun & Endoscopy Group,19455 Deerfield Ave Ste 201,Lansdowne,621111,39.077647,-77.477296,20176
223-223@63r-syc-pn5,sg:60a90209d48c46e598db990f2d225fe0,NOVA Derm Institute,19450 Deerfield Ave Ste 325,Lansdowne,621111,39.076964000000004,-77.47514699999999,20176
223-222@63f-rw4-3yv,sg:d9d697f7233b4d2e8fd70776f3c95f09,Waffle House,90 Oaktree Blvd,Christiansburg,722511,37.148531,-80.41542700000001,24073
227-222@63r-sry-kpv,sg:1da32294495247d5b706aa74adf0230c,Solo NY Pizza,700 Fieldstone Dr NE Ste 124,Leesburg,722511,39.125934,-77.545805,20176
zzw-229@63f-s3r-2tv,sg:3c63b0587159434e9316528380d9eaab,Carilion Clinic Pulmonary Medicine New River Valley,2900 Lamb Cir Ste 7 700B,Christiansburg,621111,37.088843,-80.505176,24073
225-223@63f-s4s-ygk,sg:aafab87889ac4a6584e6e24341758cb4,McHarg Cafeteria,700 12th St,Radford,722511,37.120919,-80.571286,24141
zzy-222@63f-rw4-4qf,sg:381d7ba817624e66b574d36951aad657,Ashley R Earley NP,110 Akers Farm Rd,Christiansburg,621111,37.147038,-80.413832,24073
zzz-222@63f-rvs-28v,sg:acdbe5fb2f544ec69e978f89fb69ce76,Circle Park,318 Circle Dr SE,Christiansburg,712190,37.128166,-80.401163,24073
235-222@63f-ybn-8y9,sg:5fd78ea362c14cba96a92d67bf680eb7,Your Pie,608 University City Blvd Ste 604,Blacksburg,722511,37.232437,-80.432418,24060
zzy-222@63f-rw3-zxq,sg:7843649d066c47f1a0f9e0e153481444,Kimberly D Goad D N P,1201 Elm St,Christiansburg,621111,37.144607,-80.41468499999999,24073
222-224@63r-syc-nyv,sg:b6fa1a3ba4dd474a9bf19b70db3e9e1c,Grace Berardini PA C,19415 Deerfield Ave,Lansdowne,621111,39.079419,-77.477512,20176
229-222@63r-syc-2hq,sg:24e18938993346e2b6ca4432c002037e,Fairfax Colon & Rectal Surgery Loudoun,44055 Riverside Pkwy Ste 108B,Lansdowne,621111,39.074011,-77.47784899999999,20176
222-222@63f-yc3-nbk,sg:cdcc3419ceb14936adf2124e27505a1d,Montgomery OB Gyn,826 Davis St,Blacksburg,621111,37.188175,-80.414025,24060
222-223@63r-syc-pgk,sg:ec92f5422b9a4082a8fa74ec77ed31e3,Lindsey Fails FNP BC,44084 Riverside Pkwy,Lansdowne,621111,39.07635,-77.473683,20176
223-223@63f-ybq-mx5,sg:ce22877525544985a60be884a3751f58,Carilion Clinic Orthopaedic Surgery Blacksburg,215 Gilbert St,Blacksburg,621111,37.233462,-80.42103900000001,24060
zzw-222@63r-syc-r49,sg:1db5882808fe442b96f94c4543abe283,Loudoun Pediatric Associates,19450 Deerfield Ave Ste 200,Lansdowne,621111,39.077093,-77.475363,20176
225-223@63f-rvs-3t9,sg:a08c3b174ecb4cb3b066a70907bf5810,Julianna D Snow DO,205 Roanoke St,Christiansburg,621111,37.129878999999995,-80.40351700000001,24073
zzy-225@63f-s4t-3bk,sg:c2750e9bbe7f4ddbb9311e1bf183460a,Kroger Co Ofc,Radford Shopping Plz,Radford,445110,37.130403,-80.582101,24141
zzw-224@63r-srr-nwk,sg:595d0ed431e34ffe8f7b47a071e88e7e,Nova Medical Group,51 Catoctin Cir NE,Leesburg,621111,39.111969,-77.553804,20176
224-222@63r-ss2-45f,sg:25d381c5fd4e40b4a1e5a42253683166,Legacy Orthodontics,540 Fort Evans Rd Ste 102,Leesburg,621210,39.106565,-77.52709200000001,20176
22b-222@63f-ybp-m8v,sg:52651f90856b4a4a82cd1fc82cbfbe72,Cafe De Bangkok,104 Jackson St NE,Blacksburg,722511,37.230318,-80.414038,24060
228-222@63r-syc-psq,sg:10589ac6918c4c86bae55a0f51c492ee,Loudoun Physical Therapy,44125 Woodridge Pkwy Ste 280,Lansdowne,621340,39.077433,-77.471991,20176
228-222@63f-rw2-xwk,sg:3442714d285c424096db3930a4762a35,MinuteClinic,550 N Franklin St,Christiansburg,621111,37.136621999999996,-80.414649,24073
zzw-224@63r-srr-p35,sg:abbb395073b64030be8552f670a9715f,Eastern World Market,521 E Market St,Leesburg,445110,39.107688,-77.551693,20176
zzy-222@63f-rw4-4jv,sg:f2e60a1668b64b1a8bfb469d550458d6,Dana Garnand NP,120 Akers Farm Rd,Christiansburg,621111,37.146918,-80.41341899999999,24073
zzw-222@63f-wgf-yn5,sg:61bc15365bd74d0cbe808edea574fe9c,Till & Grill Food Truck,950 Den Hill Rd,Christiansburg,722511,37.191878,-80.355705,24073
222-222@63f-ybt-zmk,sg:12a9e9bcc1914b909f77f67c21710bef,Lewis Gale Clinic,2955 Market St,Christiansburg,621111,37.169846,-80.419483,24073
222-222@63f-rw3-6zf,sg:15656048a7094e44935a6c56e3a6731e,Christiansburg Primary,240 Betty Dr,Christiansburg,611110,37.1324,-80.415385,24073
zzw-223@63f-yjn-5s5,sg:c03d3601c0fc423aacd5baca006e0772,Jim's Grocery,Popular Hl,Dublin,445110,37.195972,-80.73244100000001,24084
22d-222@63f-y9z-q75,sg:7ed8acf088a84e8f87c9233e216dc404,7-Eleven,302 Tyler Ave,Radford,445120,37.138496999999994,-80.553435,24141
224-222@63f-ybp-m49,sg:7f15e7badf2b4e81952b18af44ee0c4b,Souvlaki,201 College Ave,Blacksburg,722511,37.229871,-80.41620400000001,24060
22d-222@63f-yb5-2rk,sg:d40a568b91d14f0f86dfbdb4c839dbbd,Mike's Grocery & Video,207 1st Ave,Radford,445110,37.13937,-80.55489200000001,24141
223-223@63r-t99-wx5,sg:805eaf070fc33a6bb8858ac6321bd659,Vanish,42245 Black Hops Ln,Leesburg,722511,39.223369,-77.538016,20176
222-223@63f-yc3-gkz,sg:ce45a910da8043bf9e177a4d935f1df1,Sandra K Hayes NP,981 Litton Ln,Merrimac,621111,37.197174,-80.422229,24060
zzw-222@63f-yrx-3nq,sg:11cf6251f3b74a9eb9132eb63ab69a99,Blacksburg New School,2500 N Main St,Blacksburg,611110,37.267925,-80.41622199999999,24060
22p-222@63f-ybp-kxq,sg:099b6b56b7df49639061b535d8c5d293,Boudreaux's,205 N Main St,Blacksburg,722511,37.229997,-80.415024,24060
222-224@63r-syc-pgk,sg:3b975d627c57435f80e2e1b4968d38ca,Donald Lee DO,44084 Riverside Pkwy,Lansdowne,621111,39.076370000000004,-77.473743,20176
22h-222@63r-syc-2hq,sg:2f8e7185c50541c88608b23fc8ab782c,Town Center Orthopaedic Assoc,44055 Riverside Pkwy Ste 104,Lansdowne,621111,39.074036,-77.47783000000001,20176
zzz-222@63f-yrw-dy9,sg:b8018f379a2549749c5a22a0b4ac573b,Northside Park,500 Craig Dr,Blacksburg,712190,37.25923,-80.422139,24060
zzw-227@63f-tx6-389,sg:8ab87862598847db8a4645a60c66d8e5,7-Eleven,4622 Cleburne Blvd,Dublin,445120,37.082964000000004,-80.691059,24084
zzw-223@63f-yc2-7qz,sg:a25e5bbc3a804286a6bea00ba123d756,Target,195 Conston Ave,Christiansburg,452210,37.157086,-80.422249,24073
224-222@63r-syc-q9f,sg:180ac3ffef9448b7807564e30de1fa23,Orthopaedic & Spine Surgery Institute,19465 Deerfield Ave Ste 207,Lansdowne,621111,39.078715,-77.48124399999999,20176
zzw-223@63r-syf-9s5,sg:720bf6878f0c4135b1d3d2713b1d2891,John W Tolbert Jr Elem,691 Potomac Station Dr NE,Leesburg,611110,39.096253999999995,-77.524178,20176
223-222@63f-ybm-qzz,sg:777934f88155439a95264499df1ca4be,Larry W McCoy DDS,907 Hethwood Blvd,Blacksburg,621210,37.217083,-80.4549,24060
zzw-22w@63f-s3r-2tv,sg:25cef986495c47a7bb173d9106a582a3,Rebecca C Wooldridge NP,2900 Lamb Cir,Christiansburg,621111,37.089262,-80.505649,24073
228-222@63f-ybt-ysq,sg:0265b114f6f04085b1f66862252fd31d,Las Delicias Taqueria Y Pupuseria,3135 N Franklin St,Christiansburg,722511,37.172546999999994,-80.419854,24073
222-225@63f-s3r-5mk,sg:6905480084e149ea9f32f9a7abd886d1,Pennell Wayne E OB Gyn,2875 Barn Rd,Christiansburg,621111,37.0919,-80.505732,24073
zzy-223@63f-wg7-8gk,sg:954d77e55f09424cb8a7eadfcf37f8ef,Armour William Dr,6910 Roanoke Rd,Shawsville,621210,37.168279,-80.257703,24162
zzw-224@63r-syc-2hq,sg:04b8403aa48f4ecdbc7b8d009bae5dd3,Inova,44055 Riverside Pkwy Ste 226,Lansdowne,621111,39.074011999999996,-77.477836,20176
22r-225@63r-ss3-snq,sg:e399361d7ec54562a85b68d8e14f3229,Cameron Phipps DPM,224D Cornwall St NW,Leesburg,621111,39.119411,-77.569052,20176
222-225@63f-ybq-grk,sg:eb127029aba64da0a208641c774cd760,Dennis C Schnecker DMD Blacksburg Smiles,614 S Main St,Blacksburg,621210,37.224869,-80.40949599999999,24060
227-222@63f-yb6-snq,sg:58539b44fbec4c92a0f93ec06efb2701,Moe's Southwest Grill,314 Tyler Ave,Radford,722511,37.137924,-80.55331899999999,24141
223-222@63f-tx6-8qf,sg:6cbfae2877384e4bbf7ebd72cb48af9a,Shoney's,4416 Cleburne Blvd,Dublin,722511,37.075925,-80.692111,24084
22d-223@63r-syc-qj9,sg:79a74c357a5849a39331984999090dde,Robin Ann Ridinger MD Premier Health and Holistic Medicine,19465 Deerfield Ave Ste 106,Lansdowne,621111,39.078205,-77.47846700000001,20176
222-222@63r-sry-qzz,sg:cad6300c521148c9908bf505a413444d,MetroMed Urgent Care,952 Edwards Ferry Rd NE,Leesburg,621493,39.11675,-77.53975799999999,20176
zzw-223@63r-ss3-q4v,sg:212791c91ace4e9d937c12f81ffd9f9e,Leesburg Smiles For Life,211 Gibson St NW Ste 110,Leesburg,621210,39.119011,-77.567771,20176
223-222@63r-srr-pgk,sg:c01fbbb253ed4c4eaff14ac74504d298,7-Eleven,22 Plaza St NE,Leesburg,445120,39.108303,-77.549779,20176
226-222@63r-sy9-8y9,sg:b202fd82990c42c5912506817d0129e1,Lansdowne Foot & Ankle Center,19440 Golf Vista Plz Ste 120,Lansdowne,621111,39.078261,-77.482378,20176
227-222@63f-ybt-z4v,sg:3bea76fc7a324ecca93f78386817dbfd,Sears Home Services,3195 N Franklin St,Christiansburg,452210,37.17318,-80.419207,24073
zzw-223@63r-srz-pn5,sg:76a106e4157144929f18c9b30f4abba6,Panda Cafe,707 E Market St Ste F,Leesburg,722511,39.105776,-77.54887,20176
222-222@63r-ss2-94v,sg:9df450dfc3af4ef2a69c8d84af1cf365,Patient First,601 Potomac Station Dr NE,Leesburg,621111,39.099821999999996,-77.527006,20176
zzw-222@63f-rvs-5mk,sg:2114a8c7295a4bd3a713889e30935214,Rooker Psychiatric Services PC,102 Miller St SE,Christiansburg,621111,37.129549,-80.398464,24073
zzw-239@63f-s3r-2tv,sg:83b469b63bac4b0fbaeb806ca8870898,Christopher R Deneault PA,2900 Lamb Cir Ste L 760,Christiansburg,621111,37.089268,-80.50563299999999,24073
zzw-23b@63f-s3r-2tv,sg:a722f5492b4942a083ed35d319fb25e6,Josh S Holley D O,2900 Lamb Cir Ste 300,Christiansburg,621111,37.089255,-80.505618,24073
22r-222@63r-ss3-snq,sg:1c16d8d625474e09bab3e00d565d9715,Kathleen Harter PTA,224D Cornwall St NW,Leesburg,621340,39.119392,-77.56903,20176
zzw-222@63r-syc-2hq,sg:5ff587462b8d4e698eedbc5cb91e30be,Cross C Bernard MD Facs,44055 Riverside Pkwy,Lansdowne,621111,39.074037,-77.477824,20176
224-223@63f-ybt-zj9,sg:87b8af1bf5ee4c879062626aa10285e0,Tacos El Tio,3015 N Franklin St,Christiansburg,722511,37.171324,-80.420211,24073
222-22f@63f-s3r-5mk,sg:08a614da0c3c4fbc825c3249098e6ac2,Lauren Woods NP,2875 Barn Rd,Christiansburg,621111,37.091837,-80.505747,24073
zzw-222@63f-rw3-3bk,sg:fc9610128ce447ee9940ce4acb353be6,McDonald Peter J PC,114 N Franklin St,Christiansburg,621210,37.131661,-80.411813,24073
224-222@63f-rw3-54v,sg:cb1de22705ac44b1a11e1af6a7552444,Dr Stephen L Meyers,103 College St,Christiansburg,621210,37.129178,-80.411918,24073
22q-222@63f-ybp-mff,sg:b9acd4e1a2cb4b0c813369c8eb54862c,Joe's Diner,221 N Main St,Blacksburg,722511,37.230304,-80.415188,24060
226-222@63f-ybf-q2k,sg:52f7842803f6455e972e2577e9ff8113,Hethwood Market,820 Heather Dr,Blacksburg,445110,37.221602000000004,-80.447913,24060
222-222@63f-yc3-mx5,sg:b982b6d98ebd4bd1bfc886dd2c123d2a,NRV Pediatrics,805 Davis St,Blacksburg,621111,37.186209000000005,-80.41289300000001,24060
23b-222@63f-ybp-kxq,sg:303b5f53bc20491d8d70ebd509458e71,Sam & Moe Convenience Store,119 N Main St Ste 101,Blacksburg,445120,37.229529,-80.414524,24060
zzw-222@63r-ss2-975,sg:1fbc534f401441f6bddc0375704ae900,Giant Food,635 Potomac Station Dr. Potomac Station,Leesburg,445110,39.098240999999994,-77.526238,20176
222-222@63f-rt7-kzz,sg:70d328ef7cef491aba4a6e0c10ea6f83,Auburn Elem,1760 Auburn School Dr,Riner,611110,37.061205,-80.445952,24149
224-222@63r-sy9-mrk,sg:42c7898378074e368ddee8abc092d166,Bua Thai,19326 Promenade Dr,Lansdowne,722511,39.082087,-77.495174,20176
222-225@63f-ybf-w6k,sg:a6cb9122210946af9ab09878af0cb6ad,Hunan King Chinese Restaurant,801 University City Blvd,Blacksburg,722511,37.23395,-80.434221,24060
zzy-223@63f-tx4-xqz,sg:5c0a8b19bf3c4c93a0aaa23afab03c96,April L Andrews NP,118 Broad St,Dublin,621111,37.103694,-80.688509,24084
228-222@63r-syc-qzz,sg:4eeb7927409a441abadfec7f5bb3a925,Infectious Diseases Tropical Medicine and Travel Clinic,44035 Riverside Pkwy Ste 440,Lansdowne,621111,39.075237,-77.478471,20176
zzy-224@63f-tx4-xqz,sg:080d255aae124b508bdded61d9ae86f0,Stacy C Moore NP,118 Broad St,Dublin,621111,37.10366,-80.688503,24084
222-222@63r-sy9-8vz,sg:6717ee02058348508162e920d978314c,Trippel Michele,19420 Golf Vista Plz,Lansdowne,621111,39.078846999999996,-77.482749,20176
zzw-226@63r-syc-qj9,sg:c1379e9b0fb549cf977e9f75b1a024e9,Ssp America,19465 Deerfield Ave,Lansdowne,722511,39.078238,-77.478466,20176
222-227@63r-syb-zzz,sg:2980a50c2a0249f9bedea451159c4a8f,Advanced ENT Specialists,19490 Sandridge Way,Lansdowne,621111,39.076871000000004,-77.48208299999999,20176
zzy-222@63f-rw3-4y9,sg:64664116e7af447d96e3e61acdd498bd,Montgomery County,207 College St,Christiansburg,621111,37.128413,-80.41484,24073
zzw-22z@63f-s3r-2tv,sg:57e94ca1c3f24140833e84bdb1684bed,Corey H Smock PA,2900 Lamb Cir Ste L 760,Christiansburg,621111,37.089245,-80.505634,24073
zzw-222@63r-st2-swk,sg:41a909e07eb54263ba095b26255251a6,Five Pigs BBQ,14917 James Monroe Hwy,Leesburg,722511,39.202011999999996,-77.53792,20176
zzz-222@63f-yrx-b49,sg:c3a68d26b3b348dea43efbb2420b7123,Primrose Lane Park,122 Primrose Dr,Blacksburg,712190,37.25945,-80.415012,24060
zzw-223@63f-y7q-v75,sg:c8032f8293114f2f93c65a47594eee7c,Mikie's 7th,106 Spruce Run Rd,Newport,722511,37.289879,-80.49956999999999,24128
223-222@63f-ybf-nqz,sg:48afba75dfb34c6893aa7202f3747cfc,New River Periodontics & Dental Implant Center,2612 Sheffield Dr,Blacksburg,621210,37.21888,-80.452632,24060
zzw-222@63f-wgj-cyv,sg:c5e39546053e40d599e28713fd858217,Double Dragon,1305 S Main St,Blacksburg,722511,37.217232,-80.400002,24060
zzz-222@63f-yb4-8vz,sg:a6fa36942c5b4f42872f1d402f33ec40,Wildwood Park,W Main St,Radford,712190,37.134781,-80.565472,24141
zzw-222@63r-syc-r8v,sg:5974c765af6c4eaf891f43aba9d785d8,Lynn Chance WHNP,19455 Deerfield Ave,Lansdowne,621111,39.077548,-77.477086,20176
zzw-222@63f-rvs-3qz,sg:162450585bad480d882d73af2ab59368,Ted Puckett MD FACS,106 S Franklin St Ste C,Christiansburg,621111,37.12873,-80.406643,24073
222-225@63f-rw4-4qf,sg:163d96d4a62e408784981b31f6b98ce6,Carilion Clinic Gastroenterology Akers Farm,110 Akers Farm Rd,Christiansburg,621111,37.147079,-80.413976,24073
zzw-222@63r-syc-nyv,sg:986e30e1402443ad80d272c364ecd639,Loudoun Medical Care PC,19415 Deerfield Ave Ste 115,Lansdowne,621111,39.079398,-77.477503,20176
222-222@63f-rw3-yy9,sg:f90be817bbcd4e5c8e0bbd66ddd90f52,Christiansburg High,100 Independence Blvd,Christiansburg,611110,37.145649,-80.418234,24073
223-222@63r-syb-zxq,sg:7d64b4f487984b6b82ff9d40894128df,National Spine & Pain Centers,19500 Sandridge Way Ste 100,Lansdowne,621111,39.0761,-77.480376,20176
zzy-222@63f-yb4-sdv,sg:15e79d458d05465bb0af3eaa41853ffe,Cinco Narcisa Dr,Saint Albans Hospita,Fairlawn,622110,37.138962,-80.580191,24141
zzw-223@63r-srx-x89,sg:a1ab4d4b39d044439abcb34f53b6de91,Aurora School,601 Catoctin Cir NE,Leesburg,611110,39.122729,-77.55435899999999,20176
zzz-222@63f-ybq-bp9,sg:17788bd7d75e494baa398d14dbebefff,Price House Nature Center and Garden Park,107 Wharton St SE,Blacksburg,712190,37.230758,-80.41064899999999,24060
zzy-223@63r-ss3-snq,sg:ef96d5ca7d6243ccbd66d05fa96a5f8d,Allergy and Asthma Care Center,224D Cornwall St NW Ste 106,Leesburg,621111,39.119415000000004,-77.569046,20176
225-222@63f-ybt-zmk,sg:c9ddbde38a3647a99f6c51f4cdc536ae,Allergy & Asthma Associates of SW Virginia,2955 Market St Ste B1,Christiansburg,621111,37.169877,-80.419496,24073
223-222@63r-sry-cwk,sg:5597636f115c41a380c25a7530bd7ce1,Parker John L DDS,217 Browns Meadow Ct NE,Leesburg,621210,39.114722,-77.556786,20176
zzw-225@63r-syb-zzz,sg:3d9352e8582f471db74680e41d4354b2,Dental Innovations of Virginia,19490 Sandridge Way Ste 160,Lansdowne,621210,39.076854,-77.48184599999999,20176
zzw-222@63r-srz-sqz,sg:f44ea4cc7bd24d1faf056449ff2b5ce1,Rocco's NY Pizza & Subs,62 Plaza St NE,Leesburg,722511,39.109823,-77.548266,20176
222-224@63r-sy9-n5z,sg:24c0e69d35dd4d489a0c97784c125491,Harris Teeter,19350 Winmeade Dr,Lansdowne,445110,39.080591,-77.49559,20176
22b-222@63f-yb6-st9,sg:c319d72f7c5c4c0a902a049c27cb0d65,Benny Nicola's,1018 Clement St,Radford,722511,37.137889,-80.554086,24141
229-222@63f-yc3-qxq,sg:f7da6a82d67244afaf432685617b5cf7,Harris Charles E DDS,210 Professional Park Dr SE Ste 11,Blacksburg,621210,37.196313,-80.40128399999999,24060
zzz-222@63f-y9f-jvz,sg:00ee834fe00948f39dddb23a0147b084,Edgemont Of Diamond Hills Park,Independence Blvd NW,Christiansburg,712190,37.143097999999995,-80.43183,24073
22g-222@63r-syc-nyv,sg:7a13d461adc84aeaa886f48b6b2bd8ce,Ashburn Sterling Internal Medicine & Pediatrics,19415 Deerfield Ave Ste 213,Lansdowne,621111,39.079390000000004,-77.477523,20176
222-222@63f-wgy-vfz,sg:d89e4864ebf94b428476db34dbd11468,Cracker Barrel,30 Hampton Blvd,Christiansburg,722511,37.138829,-80.353654,24073
22d-223@63r-ss3-qs5,sg:a9029cf69c084bba8e427b5e129c08d4,La Lou Bistro,19 W Market St,Leesburg,722511,39.115604,-77.56563100000001,20176
224-222@63r-syc-pgk,sg:c7c41fee13a54d4a999d184dfcd626a0,Leesburg Sterling Family Practice,44084 Riverside Pkwy Ste 300,Lansdowne,621111,39.076351,-77.473699,20176
222-223@63f-rw4-4qf,sg:f90c497be5064d4a967e01da7eb3a8cd,Brandi N Moore P A,110 Akers Farm Rd,Christiansburg,621111,37.147033,-80.41383499999999,24073
224-224@63r-sy9-8jv,sg:206b3df975354bbdb39190d66ddb2c17,Family & Cosmetic Dentistry of Lansdowne,19420 Golf Vista Plz Ste 210,Lansdowne,621210,39.078285,-77.483485,20176
224-222@63r-srr-pd9,sg:2034304700514ddc82cb11764c2d4d79,Smile Please Family Dental & Orthodontics,546 E Market St,Leesburg,621210,39.109309,-77.550289,20176
222-224@63f-yb5-py9,sg:208441720a084fcebc81b85bcec30b45,Food Lion,1200 Tyler Ave,Radford,445110,37.1282,-80.546927,24141
227-222@63f-ykx-rrk,sg:53332ec7b6024f40b3f8bfd2fe53de21,Troy's Steak Subs & Pizza,7339 Peppers Ferry Blvd,Fairlawn,722511,37.149528000000004,-80.584541,24141
22d-222@63r-syb-zzz,sg:46b34143bd5742578872b3c9c172003d,FYSICAL,19490 Sandridge Way Ste 230,Lansdowne,621340,39.076839,-77.481822,20176
22r-22j@63r-ss3-snq,sg:5978a3ff8c0b43b298f98572bf804de4,Anushaya Fitzgerald PA C,224D Cornwall St NW,Leesburg,621111,39.119392,-77.569025,20176
224-222@63f-ybn-4vz,sg:00d4626a63fd4dcd81fedc837c5ae774,7-Eleven,1201 Toms Creek Rd,Blacksburg,445120,37.24235,-80.428166,24060
zzw-222@63r-ss2-j7q,sg:5183f5bf4b6c4a748e9789479bae6b14,Blue Ridge Grill,955 Edwards Ferry Rd NE,Leesburg,722511,39.112606,-77.53871600000001,20176
222-222@63f-s3s-swk,sg:f1b449aac2fe4a2abee2453d725cb757,Carilion Clinic Neurology New River Valley,2900 Lamb Cir Ste 360,Christiansburg,621111,37.088533,-80.505556,24073
222-224@63f-ybq-grk,sg:9115be86a58944298d5a614cc05ade99,Matthew Tomada DDS Streamline Blacksburg Office,614 S Main St,Blacksburg,621210,37.224863,-80.409471,24060
zzw-223@63r-stm-nyv,sg:b3fc6c491b984f948f8a427ef07e00ea,MinuteClinic,1200 Edwards Ferry Rd NE,Leesburg,621111,39.116087,-77.535614,20176
222-223@63f-yhy-p9z,sg:01e9cc5535864a0a9c78884f9081093d,Community Health Center of the New River Valley,5826 Ruebush Rd,Dublin,621210,37.115590999999995,-80.669948,24084
223-222@63r-ss3-snq,sg:5652c84ef3ed4a66a0d0fbef96ea3fa5,Nephrology Associates of Northern Virginia,224 Cornwall St NW Ste 100,Leesburg,621111,39.119962,-77.568754,20176
222-222@63f-rw4-4qf,sg:639210e2897b45a5b7264ce792891349,Anne M Howland PA,110 Akers Farm Rd,Christiansburg,621111,37.147083,-80.41390799999999,24073
zzw-225@63f-yc3-975,sg:d1787fe2f53c42e8984ed058ffbd3e2c,Harden David,3700 S Main St,Blacksburg,621111,37.18744,-80.411199,24060
zzw-236@63f-s3r-2tv,sg:db273eaac79149df8e6e8648289b7adf,Carol A Felts NP,2900 Lamb Cir,Christiansburg,621111,37.089293,-80.505647,24073
zzy-222@63f-yj5-975,sg:a7f4ee10fe7b4e5eb6e3f994dc925c4f,Basil Pizza,248 W Main St,Dublin,722511,37.103859,-80.685383,24084
224-222@63f-tx6-249,sg:05cea067e8e942b7aa10e2cfa4326de8,Heartland Rehabilitation Services,5286 Alexander Rd,Dublin,621340,37.084507,-80.69180899999999,24084
226-222@63f-ybp-n3q,sg:e5b503bbfc444b789ebf476182b5cfcc,Mellow Mushroom,207 S Main St,Blacksburg,722511,37.22822,-80.41241099999999,24060
223-224@63r-sry-dsq,sg:fdb35411c5964cee8ffbf52ec7f802ef,Inova,305 E Market St,Leesburg,621111,39.111564,-77.559813,20176
zzw-222@63r-sy9-8y9,sg:c84fd2b292644c739e222747ddef87dd,BioMechanic Physical Therapy,19441 Golf Vista Plz,Lansdowne,621340,39.077855,-77.48250300000001,20176
zzw-224@63r-srz-rzf,sg:aafdeca3b067405ca0f1aa60def8023b,Far East Asia Fire,241 Fort Evans Rd NE,Leesburg,722511,39.10601,-77.539168,20176
zzz-222@63r-stj-v4v,sg:598db4e8785c47e38f21806ef706cd7c,Veterans Park,42314 Balls Bluff Rd Leesburg Va 20176,Leesburg,712190,39.136064000000005,-77.53263199999999,20176
zzy-223@63f-rw4-4jv,sg:ffa9dd7a2bd047d385503dfa17a15489,Jill E Bloom PA C,120 Akers Farm Rd,Christiansburg,621111,37.146946,-80.413437,24073
zzw-222@63f-tx6-5zz,sg:11718585a9a34ab79fac93086c9686b4,Bojangles',4396 Cleburne Blvd,Dublin,722511,37.074259999999995,-80.694201,24084
224-222@63f-ykx-s5z,sg:64930390d79c45d28c48ab6c022ce5a5,NRV Oral & Maxillofacial Surgery,6061 Belspring Rd,Fairlawn,621210,37.148928999999995,-80.582766,24141
222-222@63f-rw2-xnq,sg:f0c6eb8aa9694eafaef939fda103b0f8,Christiansburg Elem,160 Wades Ln,Christiansburg,611110,37.134694,-80.41648599999999,24073
225-223@63r-sy9-8y9,sg:2e265cef57b1491db7fc0ef6d4389f37,Potomac Surgical Arts PC,19440 Golf Vista Plz Ste 130,Lansdowne,621210,39.078078999999995,-77.482407,20176
zzy-222@63f-s3r-2tv,sg:6748f212de374e01bccf61976a09f669,Jared D March DO,2900 Lamb Cir Ste 250,Christiansburg,621111,37.088852,-80.505104,24073
222-222@63r-stk-2c5,sg:b77162641e0643c3a08631a0edd5d89e,North Spring Behavioral Healthcare,42009 Victory Ln,Leesburg,611110,39.145787,-77.546662,20176
223-223@63f-yb5-389,sg:1e74713c7fa4463c9a450b9ed39ddc27,Golden Bowl,1802 E Main St,Radford,722511,37.139895,-80.564114,24141
222-224@63f-yb3-nh5,sg:3ae68d884a3f48f29b1d6941c258f9c2,Norma's Cafe,3631 Radford Rd,Plum Creek,722511,37.128594,-80.50970799999999,24073
229-222@63r-ss2-45f,sg:b44dd04fd79c440982c28b35787f29cd,Bob Leipzig DDS,540 Fort Evans Rd Ste 100,Leesburg,621210,39.106445,-77.526785,20176
222-222@63r-ss2-ghq,sg:d7a77240949c47bb8ef7b921bc7c6cbf,TGI Fridays,235 Fort Evans Rd NE,Leesburg,722511,39.109564,-77.537862,20176
222-225@63f-whb-skf,sg:1bc656097e61494092528a1f3cc9e399,Bio Pizza and Subs,5151 Northfork Rd,Elliston,722511,37.232817,-80.240424,24087
zzy-224@63f-s4s-ty9,sg:3b3206833dae49e3b6f78cca3e6ecf56,Carilion Occupational Medicine,Carilion New River M,Radford,622110,37.131859999999996,-80.576235,24141
zzz-222@63f-s4v-nt9,sg:e37d6f6d63ea4ead99746c4cf5d3f1fc,John Dobbins Park,Seventeenth St,Radford,712190,37.118351000000004,-80.566457,24141
22b-224@63f-yc3-92k,sg:7bf0dbdffe5e40f684d0acc70612bea7,Internal Medicine of Blacksburg,3698 S Main St,Blacksburg,621111,37.187232,-80.408399,24060
zzw-222@63f-ybq-mrk,sg:b38cdbb95c104077bdd02fa2b3f162da,Waffle House,610 N Main St,Blacksburg,722511,37.233942,-80.418826,24060
222-222@63f-s2x-3wk,sg:abf4378a3eb543ee9771391fa0fc1f95,Claytor Lake State Park,6620 Ben H Bolen Dr,Dublin,712190,37.051353000000006,-80.631061,24084
226-223@63r-srr-p35,sg:05866866a4204ffab6887151db307bf7,Ali Mualla DDS,545 E Market St Ste G,Leesburg,621210,39.107796,-77.551872,20176
225-223@63r-ss2-45f,sg:9d70cb40b1b2499b86327fd9a1bc2922,Midatlantic OBGYN,540 Fort Evans Rd Ste 110,Leesburg,621111,39.106466999999995,-77.526915,20176
zzz-222@63r-sry-rkz,sg:f824d6e38363429f88abf337b5c9636c,Carrvale Park,919 Marshall Dr NE Leesburg Va 20176,Leesburg,712190,39.118109000000004,-77.54377,20176
222-222@63f-yc3-5mk,sg:423639c04c0a44c885e2d937576fc9a4,Blacksburg Cataract & Eye Surgery Center,3645 S Main St,Blacksburg,621111,37.185832,-80.40764399999999,24060
zzw-224@63f-yc3-t9z,sg:717f05b0e62b43b9ab83c4b32232269e,NRV Oral & Maxillofacial Surgery,100 Professional Park Dr SE Ste 1,Blacksburg,621210,37.197253,-80.400751,24060
224-222@63f-yc3-6rk,sg:72254862c3654574a43bfa6372a4ca3d,Wallace David A Ms DDS,3712 S Main St,Merrimac,621210,37.185588,-80.40944300000001,24060
223-222@63f-wgj-9mk,sg:9d156256533545d59d9cc2d41adcd03d,Cook Out,1311 S Main St,Blacksburg,722511,37.217029,-80.400725,24060
zzz-222@63f-yb5-975,sg:fdb41be4f99c40a4ada3aa82dd5e978d,Old Riverlawn Park,6671 Riverlawn Ct,Fairlawn,712190,37.148584,-80.573003,24141
227-222@63r-syc-pn5,sg:f2dd62387d3944e8bfda5506509620ed,VA Heart Cardioligists,19455 Deerfield Ave,Lansdowne,621111,39.076991,-77.47511800000001,20176
zzw-222@63r-syc-psq,sg:27f74b873fd14278a3f8340865698fd8,Lansdowne Podiatry,44135 Woodridge Pkwy Ste 180,Lansdowne,621111,39.076826000000004,-77.471636,20176
223-222@63f-ybq-9s5,sg:f57c5bd356fe49b2aaa9b85ebfb72f06,Cosmetic Smile Center,222 Progress St NE,Blacksburg,621210,37.231703,-80.413983,24060
222-229@63r-syc-nyv,sg:ef0ce3af5a8f444798bad60bf2cd2ada,Julie Spencer FNP BC,19415 Deerfield Ave,Lansdowne,621111,39.079404,-77.47750699999999,20176
226-222@63r-ss3-snq,sg:3c76d375210044768a62b72bd831f419,Inova,211 Gibson St NW Ste 206,Leesburg,621111,39.119114,-77.567966,20176
zzw-224@63r-syb-zxq,sg:5a68292af2e44c50baf64ffab0e5fa21,Erika Visinski FNP BC,19500 Sandridge Way,Lansdowne,621111,39.076126,-77.48035,20176
226-222@63f-yc3-92k,sg:c4e380a8ccf8496b8e819701c532410f,New River Women's Health,3708 S Main St Ste D,Blacksburg,621111,37.186848,-80.40906700000001,24060
222-222@63f-ybv-k4v,sg:56fd338f02bc4b1aa4de1c63bda17a28,IHOP,65 Peppers Fry Rd NW,Christiansburg,722511,37.164432,-80.42469100000001,24073
zzz-222@63r-syd-x5z,sg:0214e442f7974aa482452dc7e0ac41c7,Harper,Harper,Leesburg,712190,39.093515000000004,-77.512571,20176
22t-222@63f-ybp-m49,sg:7bf24c333c7844c88f27f0abaa3b7816,The Rivermill,212 Draper Rd NW,Blacksburg,722511,37.229944,-80.415904,24060
227-222@63f-ybt-zmk,sg:7449803e30584d06994bddd7810b9670,Choice Physical Therapy & Wellness,2955 Market St Ste C4,Christiansburg,621340,37.169894,-80.419619,24073
222-222@63r-srz-qxq,sg:f6e235760a554c98961119a2e5350f51,Tipicos Dona Juanita,119 Fort Evans Rd NE,Leesburg,722511,39.108331,-77.5434,20176
zzw-222@63r-srr-p9z,sg:6dda08570bcc4f988c5c8a963fe46463,La Estacion Restaurante,525 E Market St,Leesburg,722511,39.10798,-77.552402,20176
zzy-223@63r-syc-2hq,sg:fcd669d945fa490d8220bd194a54b312,Inova,Inova Loudoun Hospital 44045 Riverside Parkway,Lansdowne,621111,39.074304,-77.477459,20176
zzy-222@63f-rvs-3t9,sg:1a987e51a19541d59c42be080f1ef9c8,Carilion Clinic Family Medicine Christiansburg,205 Roanoke St,Christiansburg,621111,37.129859,-80.403657,24073
zzw-222@63f-yc3-mtv,sg:d1fa9817aac04ea6a5604633e1bbb932,LewisGale Physicians,809 Davis St,Blacksburg,621111,37.186363,-80.41329,24060
22j-222@63f-yb4-zs5,sg:2c39cd7633204447b01b3e6684d492be,Kiser M Kent DDS Kiser Orthodontics,1151 E Main St Ste C,Radford,621210,37.140721,-80.55798100000001,24141
zzz-222@63f-ybs-87q,sg:3df987289df3439a919da73bc7020c42,Gateway Park,2650 Meadowbrook Dr,Blacksburg,712190,37.249986,-80.460541,24060
zzy-222@63f-ysc-swk,sg:8bd9c53140154e7f9992f0a496ab9372,Clover Hollow Covered Bridge,310 384 Clover Hollow Rd,Newport,712120,37.307623,-80.498164,24128
zzy-222@63f-rvs-649,sg:669f862bd25847c39a7059dec0f3d08c,Altern Ed Prgm Behav Disord Youth Montgomery,C/O Montgomery Co Public Schls 200 Junkin St,Christiansburg,611110,37.132028999999996,-80.40409100000001,24073
22c-222@63f-rvy-gkz,sg:2d68828060224ad0839d963aa021b2d9,Yuhui Hu DDS,601 Roanoke St,Christiansburg,621210,37.131745,-80.393579,24073
22x-222@63r-syc-pn5,sg:8c653c309a824b5f8815cd05b75ca275,Northern Virginia Center For Arthritis,19450 Deerfield Ave Ste 445,Lansdowne,621111,39.077,-77.475143,20176
22m-222@63f-ybp-mzf,sg:9701fb404ee8441190ff034c7ae34890,Rogers Physical Therapy & Performance,401 S Main St Ste 105,Blacksburg,621340,37.227051,-80.41122800000001,24060
zzw-224@63f-ybp-m49,sg:f27b6646d2bd4df1b1a7c35a68400334,DP Dough,215 N Main St,Blacksburg,722511,37.23017,-80.415194,24060
zzw-224@63f-s3r-2tv,sg:0f97e2ad9b5e4cc2a5ff20f09e99c65b,Carilion Children's Gastroenterology New River Valley,2900 Lamb Cir,Christiansburg,621111,37.088846000000004,-80.505136,24073
zzz-222@63r-stm-4y9,sg:2baa8d16a5804b5491e8dadea87d6e11,EdwardS Landing Park,901 Powhatan Ct Leesburg Va 20176,Leesburg,712190,39.119415000000004,-77.524266,20176
zzy-222@63f-ybt-zmk,sg:9ba6933599674a71b14f64a9bbbdff4e,Dana Hurt,95 Ponderosa Dr,Christiansburg,621111,37.170509,-80.419527,24073
zzz-222@63f-ybn-9cq,sg:a0a56b152a3d4ff6ba2c5646d0c62950,Mcbryde Tot Lot Park,903 Buchanan Dr,Blacksburg,712190,37.238338,-80.428123,24060
zzz-222@63f-ybp-wrk,sg:e04cdb28e5df48339f46b411228cfd95,Drillfield,Drillfield,Blacksburg,712190,37.227562,-80.42292900000001,24061
224-222@63f-wgj-dgk,sg:0d99ee1e157d4657a539f5b85d72a9aa,Howard Chris L DO,1100 S Main St,Blacksburg,621111,37.219673,-80.40383800000001,24060
zzw-22b@63f-s3r-2tv,sg:e68c550e3aa64fc6aab251bdbffc8627,Olivia R Ferguson PA,2900 Lamb Cir Ste L 760,Christiansburg,621111,37.088925,-80.505191,24073
222-225@63r-sy9-8vz,sg:ea1d5b64321d4eda90f95777915fb481,Womens Healthcare of Lansdowne,19420 Golf Vista Plz,Lansdowne,621111,39.078849,-77.48274599999999,20176
224-222@63f-yc3-92k,sg:49e6e01347334a0da8cd011782913af8,Huff B Christopher DDS,3708 S Main St Ste C,Blacksburg,621210,37.186596,-80.409077,24060
222-229@63f-s3r-5mk,sg:667d091916ef47b69b7b87e74efbcc1e,Phyllis D Carpenter,2875 Barn Rd,Christiansburg,621111,37.091823,-80.505787,24073
zzw-222@63r-syc-s5z,sg:86272b829e014462b83f3abad9df369f,Society of Radiologists & Ultrasound,44211 Slatestone Ct,Lansdowne,621111,39.078446,-77.471581,20176
22b-222@63r-syc-pgk,sg:4b7bfd5005e141c08c471f25ce5abba6,ABZ Performance,44084 Riverside Pkwy Ste LL250,Lansdowne,621111,39.076383,-77.473686,20176
222-222@63f-yc3-qfz,sg:e66735cb362443ab83ab93c348c3ee6f,The Cascade Group,200 Professional Park Dr SE Ste 4,Blacksburg,621111,37.195858,-80.400803,24060
223-222@63r-syc-qj9,sg:6a6edfd3cb1641c9b451fde02b19ecdf,Semler Dermatology,19465 Deerfield Ave Ste 408,Lansdowne,621111,39.078215,-77.478463,20176
225-222@63f-ybp-mff,sg:191aaf5ce126484785f757267a382505,The Cellar Restaurant,302 N Main St,Blacksburg,722511,37.231001,-80.415061,24060
229-222@63f-rw3-3nq,sg:50be8906a14644b999343a3c7e3de6d7,Charlie's Chinese Restaurant,35 W Main St,Christiansburg,722511,37.129264,-80.409903,24073
zzw-223@63f-rvr-f75,sg:2b3894f6d46d4eacb76de2c61c8b2068,Lewis McHenry Duel,1 SW 1st St,Christiansburg,712120,37.126458,-80.410434,24073
zzw-222@63f-yb4-b8v,sg:35cb7c334cb34124be0b4accc4a42264,John N Dalton Int,60 Dalton Dr,Radford,611110,37.135441,-80.57069200000001,24141
222-222@63f-yry-b8v,sg:acb4136198cd4cb6a58ee28b073689da,Carilion Clinic Family Medicine North Main,1420 N Main St,Blacksburg,621111,37.248329,-80.413111,24060
zzy-222@63f-wfn-j9z,sg:ec4ed7463a764253937ef030913d7efc,Falls Ridge Nature Preserve,Falls Ridge Rd,Christiansburg,712190,37.193255,-80.32163299999999,24073
zzw-222@63f-ybp-z9f,sg:b3dedd514c59412b8eb26b2d6ae92e50,April 16 Memorial,Drillfield Dr,Blacksburg,712120,37.228336999999996,-80.422887,24061
225-222@63r-sy9-8jv,sg:d788fceea7b445eba331cfe41b917033,Parminder Chawla MD Loudoun Neurology Associates,19420 Golf Vista Plz Ste 340,Lansdowne,621111,39.078188,-77.483465,20176
222-223@63f-ybm-qzz,sg:0d36cd1e022f4eb0a2c3645bbb1c8f5d,Food Lion,801 Hethwood Blvd,Blacksburg,445110,37.216815000000004,-80.455043,24060
222-222@63f-rw3-2x5,sg:65d2c0b437704107b0f2f9d1afb05a7c,McFarlane Michelle Dr,90 College St,Christiansburg,621111,37.129614000000004,-80.410923,24073
zzw-225@63r-syc-2hq,sg:6c04bf4710934a068a5c49bc31b0dbd0,Amy Emery FNP BC,44055 Riverside Pkwy,Lansdowne,621111,39.074031,-77.47784899999999,20176
229-223@63r-syc-r8v,sg:7c2a6db26e294e72b0595846addcfefa,Inova,19455 Deerfield Ave Ste 102,Lansdowne,621111,39.077618,-77.47729,20176
222-222@63f-tx6-249,sg:4c805d827ceb4ea19787fca6b2a877cf,Johnson Ted R Dr,5270 Alexander Rd,Dublin,621111,37.084548,-80.692015,24084
22f-226@63r-sry-dgk,sg:801c14acc4054e35bcd181e7fc4a43fd,Irina Nikitina ANP,116Q Edwards Ferry Rd NE,Leesburg,621111,39.114872999999996,-77.561355,20176
zzw-224@63f-s4s-t5f,sg:b4d042795512485d986f0a2c04037694,Kelly J Reece P A,701 Randolph St Ste 120,Radford,621111,37.129344,-80.568435,24141
222-222@63f-ybv-kfz,sg:3d8a7ad30b404400a28a4d3e910f4664,Golden Corral,2580 N Franklin St,Christiansburg,722511,37.165183,-80.42404,24073
zzw-223@63r-syb-zxq,sg:ab370a199ca0448eaf09c2b02dbe3c2b,Corinne Michelle Adkins PA C,19500 Sandridge Way,Lansdowne,621111,39.076111,-77.480343,20176
zzy-228@63f-s3r-2tv,sg:e91cdbbe16344044ae747efeea22ddd5,Nnenna K Okereke M D,2900 Lamb Cir,Christiansburg,621111,37.088924,-80.505196,24073
225-222@63f-s4s-rkz,sg:6eaf7719550e48f9b0a6b58aaa8dc515,Vaughan Dennis L Dr Orthodntst,600 2nd St,Radford,621210,37.130759000000005,-80.577859,24141
222-222@63f-ybv-kcq,sg:b43e76a57d714250b91b4ec818f46c84,Olive Garden,2590 N Franklin St,Christiansburg,722511,37.165937,-80.42389399999999,24073
22c-223@63r-syc-r8v,sg:021d74af91bb48beae23d717dded2787,Clinical Neurology,19455 Deerfield Ave Ste 211,Lansdowne,621111,39.07751,-77.476951,20176
222-22f@63r-syc-nyv,sg:5382b702a28146d1aae07f97f768b12f,Navin Hukmani DDS Lansdowne Orthodontics,19415 Deerfield Ave,Lansdowne,621210,39.079402,-77.477519,20176
227-222@63r-sy9-nh5,sg:b5314927e4f047ceafc453a66f18dfad,Viet Chopsticks,19385 Promenade Dr,Lansdowne,722511,39.081039000000004,-77.494776,20176
224-223@63r-syc-qzz,sg:e8808c7f2d0c4cd5bd64d78fe73de0a5,Ajay Dar,44035 Riverside Pkwy Ste 300,Lansdowne,621111,39.075144,-77.478409,20176
222-223@63f-rw4-3yv,sg:3a79791cd0a1472b83e448fe2c278be3,Darcy Amacher DDS,105 Akers Farm Rd,Christiansburg,621210,37.148284000000004,-80.414283,24073
222-222@63f-s3s-vfz,sg:3d8fd22246b14dee8050eb46ee9a6f7b,Carilion Clinic Saint Albans Hospital,2900 Lamb Cir,Christiansburg,621111,37.087412,-80.505562,24073
222-225@63r-syc-pn5,sg:db94a93a5f8a45f39024181ab993d637,Center for Spinal Surgery &amp Spinal Disorders,19450 Deerfield Ave,Lansdowne,621111,39.076978999999994,-77.475131,20176
zzw-228@63r-ss3-q4v,sg:c88d24644a0549e6ba875942e9ea9072,Brittany McPartland PA C,211 Gibson St NW,Leesburg,621111,39.118983,-77.56772,20176
22r-22f@63r-ss3-snq,sg:58759e1e444e480baee858b5f2a18e46,Loudoun Spine & Rehabilitation,224D Cornwall St NW,Leesburg,621340,39.119935999999996,-77.56876199999999,20176
zzw-224@63f-ybf-wtv,sg:637233c3aea04349989f199f604a304b,Roots Natural Kitchen,898 Prices Fork Rd,Blacksburg,722511,37.232008,-80.431794,24060
222-223@63f-yc3-mx5,sg:5ed542c0899d43a7867b4d4fffef22b3,Stapleton Christopher,805 Davis St,Blacksburg,621111,37.186183,-80.41289300000001,24060
224-222@63r-syc-2hq,sg:ff46211b0db34c90b5192f3a221b2ac3,OB GYN Hospitalists of Loudoun,44045 Riverside Pkwy Ste 234,Lansdowne,621111,39.074022,-77.47751099999999,20176
zzz-222@63f-wgh-zzz,sg:53555d25530e4b059f704222652bcfa5,Sunrise Park,513 Sunrise Dr,Blacksburg,712190,37.217573,-80.393734,24060
22s-222@63r-ss3-snq,sg:d5c754e32b9d44e7aef08ba483be93c4,Potomac Family Practice,224D Cornwall St NW Ste 301,Leesburg,621111,39.119547,-77.56900999999999,20176
22r-22h@63r-ss3-snq,sg:af1507f459784a3f89e14d7e9e712757,Potomac Family Practice Leesburg,224D Cornwall St NW,Leesburg,621111,39.119571,-77.568988,20176
zzy-222@63f-ybp-mrk,sg:60ea311f00474b8fa987703b44866325,Robert Schopf DPM,250 S Main St Ste 224A,Blacksburg,621111,37.227920000000005,-80.412966,24060
225-222@63r-syc-qzz,sg:bb3409fe37274b9ba50c4d7e359790d8,Inova,44035 Riverside Pkwy Ste 120,Lansdowne,621111,39.075237,-77.478487,20176
223-222@63f-ybm-qpv,sg:c5fe60a0b204407ea94ee9e06ace120f,Kipps Elem,2801 Prices Fork Rd,Blacksburg,611110,37.215888,-80.456278,24060
zzy-223@63r-syc-qzz,sg:8e8a2d1512594dbfb316989199e030f6,Inova,Inova Loudoun Medical Campus 44035 Riverside Parkw,Lansdowne,621111,39.075173,-77.478406,20176
222-222@63r-syc-pn5,sg:d46f4a1da2fa428f8221876640fad3c3,Tareq Abedin,19450 Deerfield Ave,Lansdowne,621111,39.076986,-77.475115,20176
zzw-222@63r-srz-sbk,sg:a3165a9aa5964d7caff97b458b5a7d91,Inova,19 Fort Evans Rd NE Ste C,Leesburg,621111,39.107207,-77.546812,20176
223-222@63f-yc3-q75,sg:dc78da91fea845b9b9b461b01d33d65b,Hansen Orthodontics,100 Professional Park Dr SE Ste 3,Blacksburg,621210,37.197337,-80.400882,24060
zzy-222@63f-wgy-vxq,sg:ffb07f8e8fcc4c3195c5461ab0e9105d,Stop In Food Stores,2535 Roanoke Rd,Christiansburg,445110,37.136835999999995,-80.353886,24068
zzy-222@63f-wg7-7bk,sg:06cbd3cb7c594ae9bdeb0be6bb7b99c6,Carilion Family Medicine,Shawsville,Shawsville,621111,37.168409999999994,-80.255515,24162
zzz-222@63f-ybq-rc5,sg:f77c421fbeb64701bdfcd4dd1eb7a5c3,Wong Park,303 Wilson Ave,Blacksburg,712190,37.234506,-80.413893,24060
zzz-222@63f-ybz-k2k,sg:4470ff1d2eed49beaeb5d45494f9e1ec,North Christiansburg Regional Park,300 Peppers Fry Rd NW,Christiansburg,712190,37.158254,-80.428993,24073
222-226@63r-syc-pgk,sg:717251a9f32a4d30a6b23ddaff33a2e4,Valerie Rhodes DO,44084 Riverside Pkwy,Lansdowne,621111,39.076322,-77.473694,20176
zzy-222@63f-wqj-x5z,sg:9a7833e08bb94798abc6ff395ade2e41,The Homeplace,4968 Catawba Valley Dr,Catawba,722511,37.381054,-80.111436,24070
22q-222@63f-ybq-mp9,sg:41ebfdf0509e43e8a1f0f865e60596b0,Black Salt Kitchen,610 N Main St Ste A,Blacksburg,722511,37.234079,-80.418759,24060
zzw-224@63f-yb5-z9f,sg:4754df6ec3844fbda36feb43b22517e0,Coccaro Physician,202 8th St,Radford,621111,37.128393,-80.568474,24141
zzw-222@63r-sy9-5fz,sg:81de9d5c26004979b8ec2e1008f0cb07,Riverside High,19019 Upper Belmont Pl,Lansdowne,611110,39.091814,-77.489429,20176
222-222@63f-yb4-j9z,sg:c15293359adc4b02b75e2751356b8e30,Bojangles',7455 Lee Hwy,Fairlawn,722511,37.143101,-80.579266,24141
223-223@63f-ybn-8jv,sg:ee8aec4878ff43088c047fb29f044fcd,Macado's,922 University City Blvd,Blacksburg,722511,37.236396,-80.433959,24060
zzw-224@63r-syc-nyv,sg:96930b5c36624941bd32b6dc965fe846,Loudoun Women's Healthcare Associates,19415 Deerfield Ave Ste 202,Lansdowne,621111,39.079396,-77.477335,20176
222-222@63f-rmr-hbk,sg:273b8175191e4437bedd42420504c076,Indian Valley Elem,4130 Indian Valley Rd NW,Radford,611110,36.916478000000005,-80.539164,24141
226-222@63f-ykx-psq,sg:2ad3c832ff9e4737a0bc112aea2d4e34,Sal's Jr Pizzeria & Italian Restaurant,7401 Peppers Ferry Blvd,Fairlawn,722511,37.152008,-80.582616,24141
22q-222@63f-wgh-gkz,sg:a2fc769ad104456e89b5e7613979a356,Carilion Clinic Obstetrics & Gynecology Blacksburg,1997 S Main St Ste 704,Blacksburg,621111,37.206325,-80.39808199999999,24060
zzw-222@63f-yb3-kmk,sg:f2278b98e629405b8bd670b4ba56ab6a,Longs Mobile Home Park,1224 Rock Rd Lot 22,Plum Creek,712190,37.127340999999994,-80.516587,24073
zzw-222@63f-ybf-2hq,sg:7681e672814645e7bbbf8b0741017737,Carilion Clinic Cardiology Blacksburg,901 Plantation Rd,Blacksburg,621111,37.224851,-80.444385,24060
zzw-223@63f-s4s-t5f,sg:8cc895bb4b7d491aab1359d8ba874dfb,Carilion Clinic Family Medicine Radford,701 Randolph St Ste 120,Radford,621111,37.129355,-80.568414,24141
zzw-223@63f-tx7-5xq,sg:63a99c875734469591cd4b47f81c19bd,LewisGale Hospital Pulaski,4550 Lee Hwy,Dublin,622110,37.097875,-80.726445,24084
227-222@63r-syc-qj9,sg:7c408bdc113c44ee89029585986c51b4,Ace Physical Therapy & Sports Medicine Institute,19465 Deerfield Ave Ste 311,Lansdowne,621340,39.078198,-77.47851,20176
22d-222@63r-syc-2hq,sg:3ac43ac7989b40c386fc8ba2448a22ef,Inova,44045 Riverside Pkwy,Lansdowne,621111,39.074311,-77.477952,20176
zzy-222@63f-yb4-g8v,sg:01a3587ded1f4462b06ee1a5e75d71ce,Hank's Drive In,7431 Lee Hwy,Fairlawn,722511,37.143611,-80.58081999999999,24141
zzw-222@63f-rvt-z75,sg:46259454d1834e69945ed33bdf5ff3cc,Christiansburg Middle,1205 Buffalo Dr,Christiansburg,611110,37.122438,-80.425306,24073
zzw-225@63f-yb5-z9f,sg:d2830aa191b448138d8e9761234a1e28,Stickley Robert F,202 8th St,Radford,621111,37.128485,-80.568371,24141
22m-222@63f-ybp-mff,sg:cb60c56b415540ce9e3882df9fb30c68,The Coop,235 N Main St,Blacksburg,722511,37.230406,-80.415274,24060
222-222@63f-yc3-qxq,sg:45346f2791474a73910d01de47080688,Eye Care & Surgery,110 Professional Park Dr SE Ste 5,Blacksburg,621111,37.196871,-80.400832,24060
zzy-222@63f-s4t-3bk,sg:af200c450684475c891d5ffd74a4cf04,Gregg John M Dr Oral Surgery,Radford Shopping Ctr,Radford,621210,37.130418,-80.582098,24141
zzz-222@63f-rw2-wp9,sg:00cd1ce4814c461e9d2b2400a4396b6d,Depot Park,250 Depot St NE,Christiansburg,712190,37.135907,-80.410415,24073
zzz-222@63f-y9z-f9f,sg:395e9bfeb1f7410a9d26d430fea2221b,Sparkys Dog Run,Sparkys Dog Run,Radford,712190,37.140997999999996,-80.542392,24141
zzw-222@63r-stc-m8v,sg:11f7f775b2f24c97bc631285ac864d9b,Jule's BBQ,14740 James Monroe Hwy,Leesburg,722511,39.207395,-77.535964,20176
zzz-222@63f-ybp-7qz,sg:3cb7e7533e9f45ad8ad32ca97f0ac7ed,Toms Creek Park,2100 Toms Creek Rd,Blacksburg,712190,37.252663,-80.435579,24060
zzw-232@63f-s3r-2tv,sg:0456870097a642b49e4c7b28b29e6746,Michael C Knight DO,2900 Lamb Cir Ste L 760,Christiansburg,621111,37.089261,-80.505655,24073
222-224@63f-wgh-94v,sg:9ba2a6e78b57462b87483738927c6da3,Frank Theatres CineBowl & Grille,1614 S Main St,Blacksburg,722511,37.211945,-80.401227,24060
zzw-226@63f-wgh-5zz,sg:2e659b0dc5614ec5b651fa1236ed49a5,Core Physical Therapy,1901 S Main St Ste 8,Blacksburg,621340,37.207134,-80.398166,24060
223-222@63r-syc-psq,sg:54d4d479b4b243e9a7796b5b9c490016,Atiyeh Emam DDS,44135 Woodridge Pkwy,Lansdowne,621210,39.077009000000004,-77.471737,20176
zzw-222@63r-syc-p35,sg:8a483bdf17ea4451bbe7029bc41267d3,Allergy Asthma &amp Immunology Institute,19455 Deerfield Ave Ste 207,Lansdowne,621111,39.077539,-77.476761,20176
zzw-229@63r-syc-qj9,sg:211ff340a9444aed9eeba1fe75800cbe,Advanced Spine & Sports Therapy,19465 Deerfield Ave,Lansdowne,621340,39.078216999999995,-77.478465,20176
222-228@63r-syc-nyv,sg:9ea58044d65c4be7a793d663d109cd48,Jennifer Mendrysa FNP BC,19415 Deerfield Ave,Lansdowne,621111,39.079411,-77.477533,20176
zzw-222@63f-ybp-n89,sg:90aaf6ba76f14de6a5823a3d40ddac92,Soup Garden,Turner Pl,Blacksburg,722511,37.229524,-80.41794399999999,24061
zzw-224@63r-syc-qj9,sg:440a374b03ac485a8ba32785609b94d6,Michael Fraykor PA C,19465 Deerfield Ave,Lansdowne,621111,39.078216999999995,-77.478501,20176
225-222@63f-yb5-2p9,sg:f80a5cf5b11a488984f0bfbf3bd22311,Mikes Pizza,1116 Grove Ave,Radford,722511,37.140084,-80.556092,24141
222-223@63f-y8x-rff,sg:527f04908ff04401a3ba0240578009dc,Snuffy's General Store,4351 Prices Fork Rd,Prices Fork,445120,37.207487,-80.495168,24060
222-226@63r-syb-zzz,sg:3b27859bb19f46c187943d9821747d96,Jaster Francis PA C,19490 Sandridge Way,Lansdowne,621111,39.076831,-77.48205,20176
22g-222@63r-syc-pn5,sg:5df8b40bb22b40d0b79c4ebe556829ee,Lansdowne Smile Design,19450 Deerfield Ave Ste 465,Lansdowne,621210,39.077073999999996,-77.475222,20176
222-222@63f-rw2-w8v,sg:7950aa21e40a4316b9adaf8a3bf22ea9,Kroger,555 N Franklin St,Christiansburg,445110,37.136064000000005,-80.411811,24073
zzw-22d@63r-syc-qj9,sg:de970d3675e04084801d1ea1f1a10eda,Brandquist Margaret Cnm,19465 Deerfield Ave,Lansdowne,621111,39.078209,-77.478509,20176
227-222@63f-yc3-mzf,sg:549d0fc7b6cb4a398df75bac88ee5343,Blacksburg Pediatrics PLC,817 Davis St Ste A,Blacksburg,621111,37.186745,-80.41404,24060
228-222@63f-rw3-nyv,sg:261e0f0c2c774c0f9b544736356ffcc0,Christiansburg Industrial Institute Historical Marker,102 Scattergood Dr NE,Christiansburg,712120,37.143916,-80.413145,24073
223-222@63f-wgh-dgk,sg:49aea5ac5f104beeba2375fb307ab8cf,Bojangles',2111 S Main St,Blacksburg,722511,37.201295,-80.39885699999999,24060
226-222@63f-ybp-mx5,sg:95fbdc2573bd45f19e47b145aab137f8,NRV Family Dentistry,200 Washington St SE,Blacksburg,621210,37.228547999999996,-80.411363,24060
223-222@63f-yc3-mx5,sg:1cd43b4c599e4eb4895cbfb5f179b083,Michael Cantor,801 Davis St,Blacksburg,621111,37.186144,-80.41245699999999,24060
225-222@63f-ybx-4d9,sg:d6d6cf51ce094c0abcce614c7d5a70bb,The Pain Center of Christianburg,125 Akers Farm Rd Ste B,Christiansburg,621111,37.147949,-80.413352,24073
224-222@63r-syc-pn5,sg:b77e0fdc2383435590aa21978e5834d2,Pulmonary and Critical Care Specialists of Northern Virginia,19450 Deerfield Ave Ste 365,Lansdowne,621111,39.077078,-77.475219,20176
223-222@63f-rvr-syv,sg:f3430e60885642e6b53b82e807eabc55,Montgomery County Governor's Stem Academy,750 Imperial St,Christiansburg,611110,37.130978999999996,-80.392577,24073
zzy-223@63f-s3s-swk,sg:98b3e8a2df094ad3845d6f9b28740026,Wayel S Alyahya M D,2900 Lamb Cir,Christiansburg,621111,37.088563,-80.50556,24073
zzw-222@63f-yb5-z9f,sg:2315743e9e3d4cf8ade0fea17e396301,New River Valley Pediatrics,202 8th St,Radford,621111,37.12838,-80.568454,24141
223-222@63r-st2-w8v,sg:b6393757082741309c3cd7c7bb271e0f,Roots 657,42301 Spinks Ferry Rd,Leesburg,722511,39.205312,-77.536108,20176
222-222@63f-rw3-3qz,sg:546914554ded41cf8cd1cdc11cea30ac,LewisGale Physicians Christiansburg Family Medicine,6 Hickok St,Christiansburg,622110,37.12811,-80.409594,24073
222-222@63f-rvy-6x5,sg:b222b434d3364896af0a8eda45997471,Food Lion,1530 Roanoke St,Christiansburg,445110,37.133741,-80.379144,24073
